[
  {
    "nom": "PARIS 01",
    "code_postal": 75001,
    "departement": 75
  },
  {
    "nom": "PARIS 02",
    "code_postal": 75002,
    "departement": 75
  },
  {
    "nom": "PARIS 03",
    "code_postal": 75003,
    "departement": 75
  },
  {
    "nom": "PARIS 04",
    "code_postal": 75004,
    "departement": 75
  },
  {
    "nom": "PARIS 05",
    "code_postal": 75005,
    "departement": 75
  },
  {
    "nom": "PARIS 06",
    "code_postal": 75006,
    "departement": 75
  },
  {
    "nom": "PARIS 07",
    "code_postal": 75007,
    "departement": 75
  },
  {
    "nom": "PARIS 08",
    "code_postal": 75008,
    "departement": 75
  },
  {
    "nom": "PARIS 09",
    "code_postal": 75009,
    "departement": 75
  },
  {
    "nom": "PARIS 10",
    "code_postal": 75010,
    "departement": 75
  },
  {
    "nom": "PARIS 11",
    "code_postal": 75011,
    "departement": 75
  },
  {
    "nom": "PARIS 12",
    "code_postal": 75012,
    "departement": 75
  },
  {
    "nom": "PARIS 13",
    "code_postal": 75013,
    "departement": 75
  },
  {
    "nom": "PARIS 14",
    "code_postal": 75014,
    "departement": 75
  },
  {
    "nom": "PARIS 15",
    "code_postal": 75015,
    "departement": 75
  },
  {
    "nom": "PARIS 16",
    "code_postal": 75016,
    "departement": 75
  },
  {
    "nom": "PARIS 16",
    "code_postal": 75116,
    "departement": 75
  },
  {
    "nom": "PARIS 17",
    "code_postal": 75017,
    "departement": 75
  },
  {
    "nom": "PARIS 18",
    "code_postal": 75018,
    "departement": 75
  },
  {
    "nom": "PARIS 19",
    "code_postal": 75019,
    "departement": 75
  },
  {
    "nom": "PARIS 20",
    "code_postal": 75020,
    "departement": 75
  },
  {
    "nom": "ACHERES LA FORET",
    "code_postal": 77760,
    "departement": 77
  },
  {
    "nom": "AMILLIS",
    "code_postal": 77120,
    "departement": 77
  },
  {
    "nom": "AMPONVILLE",
    "code_postal": 77760,
    "departement": 77
  },
  {
    "nom": "ANDREZEL",
    "code_postal": 77390,
    "departement": 77
  },
  {
    "nom": "ANNET SUR MARNE",
    "code_postal": 77410,
    "departement": 77
  },
  {
    "nom": "ARBONNE LA FORET",
    "code_postal": 77630,
    "departement": 77
  },
  {
    "nom": "ARGENTIERES",
    "code_postal": 77390,
    "departement": 77
  },
  {
    "nom": "ARMENTIERES EN BRIE",
    "code_postal": 77440,
    "departement": 77
  },
  {
    "nom": "ARVILLE",
    "code_postal": 77890,
    "departement": 77
  },
  {
    "nom": "AUBEPIERRE OZOUER LE REPOS",
    "code_postal": 77720,
    "departement": 77
  },
  {
    "nom": "AUBEPIERRE OZOUER LE REPOS",
    "code_postal": 77720,
    "departement": 77
  },
  {
    "nom": "AUFFERVILLE",
    "code_postal": 77570,
    "departement": 77
  },
  {
    "nom": "AUGERS EN BRIE",
    "code_postal": 77560,
    "departement": 77
  },
  {
    "nom": "AULNOY",
    "code_postal": 77120,
    "departement": 77
  },
  {
    "nom": "AVON",
    "code_postal": 77210,
    "departement": 77
  },
  {
    "nom": "BABY",
    "code_postal": 77480,
    "departement": 77
  },
  {
    "nom": "BAGNEAUX SUR LOING",
    "code_postal": 77167,
    "departement": 77
  },
  {
    "nom": "BAILLY ROMAINVILLIERS",
    "code_postal": 77700,
    "departement": 77
  },
  {
    "nom": "BALLOY",
    "code_postal": 77118,
    "departement": 77
  },
  {
    "nom": "BANNOST VILLEGAGNON",
    "code_postal": 77970,
    "departement": 77
  },
  {
    "nom": "BANNOST VILLEGAGNON",
    "code_postal": 77970,
    "departement": 77
  },
  {
    "nom": "BARBEY",
    "code_postal": 77130,
    "departement": 77
  },
  {
    "nom": "BARBIZON",
    "code_postal": 77630,
    "departement": 77
  },
  {
    "nom": "BARCY",
    "code_postal": 77910,
    "departement": 77
  },
  {
    "nom": "BASSEVELLE",
    "code_postal": 77750,
    "departement": 77
  },
  {
    "nom": "BAZOCHES LES BRAY",
    "code_postal": 77118,
    "departement": 77
  },
  {
    "nom": "BEAUCHERY ST MARTIN",
    "code_postal": 77560,
    "departement": 77
  },
  {
    "nom": "BEAUCHERY ST MARTIN",
    "code_postal": 77560,
    "departement": 77
  },
  {
    "nom": "BEAUMONT DU GATINAIS",
    "code_postal": 77890,
    "departement": 77
  },
  {
    "nom": "BEAUVOIR",
    "code_postal": 77390,
    "departement": 77
  },
  {
    "nom": "BELLOT",
    "code_postal": 77510,
    "departement": 77
  },
  {
    "nom": "BERNAY VILBERT",
    "code_postal": 77540,
    "departement": 77
  },
  {
    "nom": "BERNAY VILBERT",
    "code_postal": 77540,
    "departement": 77
  },
  {
    "nom": "BETON BAZOCHES",
    "code_postal": 77320,
    "departement": 77
  },
  {
    "nom": "BEZALLES",
    "code_postal": 77970,
    "departement": 77
  },
  {
    "nom": "BLANDY",
    "code_postal": 77115,
    "departement": 77
  },
  {
    "nom": "BLENNES",
    "code_postal": 77940,
    "departement": 77
  },
  {
    "nom": "BOISDON",
    "code_postal": 77970,
    "departement": 77
  },
  {
    "nom": "BOIS LE ROI",
    "code_postal": 77590,
    "departement": 77
  },
  {
    "nom": "BOISSETTES",
    "code_postal": 77350,
    "departement": 77
  },
  {
    "nom": "BOISSISE LA BERTRAND",
    "code_postal": 77350,
    "departement": 77
  },
  {
    "nom": "BOISSISE LE ROI",
    "code_postal": 77310,
    "departement": 77
  },
  {
    "nom": "BOISSY AUX CAILLES",
    "code_postal": 77760,
    "departement": 77
  },
  {
    "nom": "BOISSY LE CHATEL",
    "code_postal": 77169,
    "departement": 77
  },
  {
    "nom": "BOITRON",
    "code_postal": 77750,
    "departement": 77
  },
  {
    "nom": "BOMBON",
    "code_postal": 77720,
    "departement": 77
  },
  {
    "nom": "BOUGLIGNY",
    "code_postal": 77570,
    "departement": 77
  },
  {
    "nom": "BOULANCOURT",
    "code_postal": 77760,
    "departement": 77
  },
  {
    "nom": "BOULEURS",
    "code_postal": 77580,
    "departement": 77
  },
  {
    "nom": "BOURRON MARLOTTE",
    "code_postal": 77780,
    "departement": 77
  },
  {
    "nom": "BOUTIGNY",
    "code_postal": 77470,
    "departement": 77
  },
  {
    "nom": "BRANSLES",
    "code_postal": 77620,
    "departement": 77
  },
  {
    "nom": "BRAY SUR SEINE",
    "code_postal": 77480,
    "departement": 77
  },
  {
    "nom": "BREAU",
    "code_postal": 77720,
    "departement": 77
  },
  {
    "nom": "BRIE COMTE ROBERT",
    "code_postal": 77170,
    "departement": 77
  },
  {
    "nom": "LA BROSSE MONTCEAUX",
    "code_postal": 77940,
    "departement": 77
  },
  {
    "nom": "BROU SUR CHANTEREINE",
    "code_postal": 77177,
    "departement": 77
  },
  {
    "nom": "BURCY",
    "code_postal": 77760,
    "departement": 77
  },
  {
    "nom": "BUSSIERES",
    "code_postal": 77750,
    "departement": 77
  },
  {
    "nom": "BUSSY ST GEORGES",
    "code_postal": 77600,
    "departement": 77
  },
  {
    "nom": "BUSSY ST MARTIN",
    "code_postal": 77600,
    "departement": 77
  },
  {
    "nom": "BUSSY ST MARTIN",
    "code_postal": 77600,
    "departement": 77
  },
  {
    "nom": "BUTHIERS",
    "code_postal": 77760,
    "departement": 77
  },
  {
    "nom": "CANNES ECLUSE",
    "code_postal": 77130,
    "departement": 77
  },
  {
    "nom": "CARNETIN",
    "code_postal": 77400,
    "departement": 77
  },
  {
    "nom": "LA CELLE SUR MORIN",
    "code_postal": 77515,
    "departement": 77
  },
  {
    "nom": "CELY",
    "code_postal": 77930,
    "departement": 77
  },
  {
    "nom": "CERNEUX",
    "code_postal": 77320,
    "departement": 77
  },
  {
    "nom": "CESSON",
    "code_postal": 77240,
    "departement": 77
  },
  {
    "nom": "CESSOY EN MONTOIS",
    "code_postal": 77520,
    "departement": 77
  },
  {
    "nom": "CHAILLY EN BIERE",
    "code_postal": 77930,
    "departement": 77
  },
  {
    "nom": "CHAILLY EN BRIE",
    "code_postal": 77120,
    "departement": 77
  },
  {
    "nom": "CHAINTREAUX",
    "code_postal": 77460,
    "departement": 77
  },
  {
    "nom": "CHALAUTRE LA GRANDE",
    "code_postal": 77171,
    "departement": 77
  },
  {
    "nom": "CHALAUTRE LA PETITE",
    "code_postal": 77160,
    "departement": 77
  },
  {
    "nom": "CHALIFERT",
    "code_postal": 77144,
    "departement": 77
  },
  {
    "nom": "CHALMAISON",
    "code_postal": 77650,
    "departement": 77
  },
  {
    "nom": "CHAMBRY",
    "code_postal": 77910,
    "departement": 77
  },
  {
    "nom": "CHAMIGNY",
    "code_postal": 77260,
    "departement": 77
  },
  {
    "nom": "CHAMPAGNE SUR SEINE",
    "code_postal": 77430,
    "departement": 77
  },
  {
    "nom": "CHAMPCENEST",
    "code_postal": 77560,
    "departement": 77
  },
  {
    "nom": "CHAMPDEUIL",
    "code_postal": 77390,
    "departement": 77
  },
  {
    "nom": "CHAMPEAUX",
    "code_postal": 77720,
    "departement": 77
  },
  {
    "nom": "CHAMPS SUR MARNE",
    "code_postal": 77420,
    "departement": 77
  },
  {
    "nom": "CHANGIS SUR MARNE",
    "code_postal": 77660,
    "departement": 77
  },
  {
    "nom": "CHANTELOUP EN BRIE",
    "code_postal": 77600,
    "departement": 77
  },
  {
    "nom": "LA CHAPELLE GAUTHIER",
    "code_postal": 77720,
    "departement": 77
  },
  {
    "nom": "LA CHAPELLE IGER",
    "code_postal": 77540,
    "departement": 77
  },
  {
    "nom": "LA CHAPELLE LA REINE",
    "code_postal": 77760,
    "departement": 77
  },
  {
    "nom": "LA CHAPELLE RABLAIS",
    "code_postal": 77370,
    "departement": 77
  },
  {
    "nom": "LA CHAPELLE ST SULPICE",
    "code_postal": 77160,
    "departement": 77
  },
  {
    "nom": "LES CHAPELLES BOURBON",
    "code_postal": 77610,
    "departement": 77
  },
  {
    "nom": "LA CHAPELLE MOUTILS",
    "code_postal": 77320,
    "departement": 77
  },
  {
    "nom": "LA CHAPELLE MOUTILS",
    "code_postal": 77320,
    "departement": 77
  },
  {
    "nom": "CHARMENTRAY",
    "code_postal": 77410,
    "departement": 77
  },
  {
    "nom": "CHARNY",
    "code_postal": 77410,
    "departement": 77
  },
  {
    "nom": "CHARTRETTES",
    "code_postal": 77590,
    "departement": 77
  },
  {
    "nom": "CHARTRONGES",
    "code_postal": 77320,
    "departement": 77
  },
  {
    "nom": "CHATEAUBLEAU",
    "code_postal": 77370,
    "departement": 77
  },
  {
    "nom": "CHATEAU LANDON",
    "code_postal": 77570,
    "departement": 77
  },
  {
    "nom": "LE CHATELET EN BRIE",
    "code_postal": 77820,
    "departement": 77
  },
  {
    "nom": "CHATENAY SUR SEINE",
    "code_postal": 77126,
    "departement": 77
  },
  {
    "nom": "CHATENOY",
    "code_postal": 77167,
    "departement": 77
  },
  {
    "nom": "CHATILLON LA BORDE",
    "code_postal": 77820,
    "departement": 77
  },
  {
    "nom": "CHATRES",
    "code_postal": 77610,
    "departement": 77
  },
  {
    "nom": "CHAUFFRY",
    "code_postal": 77169,
    "departement": 77
  },
  {
    "nom": "CHAUMES EN BRIE",
    "code_postal": 77390,
    "departement": 77
  },
  {
    "nom": "CHELLES",
    "code_postal": 77500,
    "departement": 77
  },
  {
    "nom": "CHELLES",
    "code_postal": 77500,
    "departement": 77
  },
  {
    "nom": "CHENOISE CUCHARMOY",
    "code_postal": 77160,
    "departement": 77
  },
  {
    "nom": "CHENOISE CUCHARMOY",
    "code_postal": 77160,
    "departement": 77
  },
  {
    "nom": "CHENOU",
    "code_postal": 77570,
    "departement": 77
  },
  {
    "nom": "CHESSY",
    "code_postal": 77700,
    "departement": 77
  },
  {
    "nom": "CHEVRAINVILLIERS",
    "code_postal": 77760,
    "departement": 77
  },
  {
    "nom": "CHEVRU",
    "code_postal": 77320,
    "departement": 77
  },
  {
    "nom": "CHEVRY COSSIGNY",
    "code_postal": 77173,
    "departement": 77
  },
  {
    "nom": "CHEVRY COSSIGNY",
    "code_postal": 77173,
    "departement": 77
  },
  {
    "nom": "CHEVRY EN SEREINE",
    "code_postal": 77710,
    "departement": 77
  },
  {
    "nom": "CHOISY EN BRIE",
    "code_postal": 77320,
    "departement": 77
  },
  {
    "nom": "CITRY",
    "code_postal": 77730,
    "departement": 77
  },
  {
    "nom": "CLAYE SOUILLY",
    "code_postal": 77410,
    "departement": 77
  },
  {
    "nom": "CLAYE SOUILLY",
    "code_postal": 77410,
    "departement": 77
  },
  {
    "nom": "CLOS FONTAINE",
    "code_postal": 77370,
    "departement": 77
  },
  {
    "nom": "COCHEREL",
    "code_postal": 77440,
    "departement": 77
  },
  {
    "nom": "COLLEGIEN",
    "code_postal": 77090,
    "departement": 77
  },
  {
    "nom": "COMBS LA VILLE",
    "code_postal": 77380,
    "departement": 77
  },
  {
    "nom": "COMPANS",
    "code_postal": 77290,
    "departement": 77
  },
  {
    "nom": "CONCHES SUR GONDOIRE",
    "code_postal": 77600,
    "departement": 77
  },
  {
    "nom": "CONDE STE LIBIAIRE",
    "code_postal": 77450,
    "departement": 77
  },
  {
    "nom": "CONGIS SUR THEROUANNE",
    "code_postal": 77440,
    "departement": 77
  },
  {
    "nom": "COUBERT",
    "code_postal": 77170,
    "departement": 77
  },
  {
    "nom": "COUILLY PONT AUX DAMES",
    "code_postal": 77860,
    "departement": 77
  },
  {
    "nom": "COULOMBS EN VALOIS",
    "code_postal": 77840,
    "departement": 77
  },
  {
    "nom": "COULOMMES",
    "code_postal": 77580,
    "departement": 77
  },
  {
    "nom": "COULOMMIERS",
    "code_postal": 77120,
    "departement": 77
  },
  {
    "nom": "COUPVRAY",
    "code_postal": 77700,
    "departement": 77
  },
  {
    "nom": "COURCELLES EN BASSEE",
    "code_postal": 77126,
    "departement": 77
  },
  {
    "nom": "COURCHAMP",
    "code_postal": 77560,
    "departement": 77
  },
  {
    "nom": "COURPALAY",
    "code_postal": 77540,
    "departement": 77
  },
  {
    "nom": "COURQUETAINE",
    "code_postal": 77390,
    "departement": 77
  },
  {
    "nom": "COURTACON",
    "code_postal": 77560,
    "departement": 77
  },
  {
    "nom": "COURTOMER",
    "code_postal": 77390,
    "departement": 77
  },
  {
    "nom": "COURTRY",
    "code_postal": 77181,
    "departement": 77
  },
  {
    "nom": "COUTENCON",
    "code_postal": 77154,
    "departement": 77
  },
  {
    "nom": "COUTEVROULT",
    "code_postal": 77580,
    "departement": 77
  },
  {
    "nom": "CRECY LA CHAPELLE",
    "code_postal": 77580,
    "departement": 77
  },
  {
    "nom": "CRECY LA CHAPELLE",
    "code_postal": 77580,
    "departement": 77
  },
  {
    "nom": "CREGY LES MEAUX",
    "code_postal": 77124,
    "departement": 77
  },
  {
    "nom": "CREVECOEUR EN BRIE",
    "code_postal": 77610,
    "departement": 77
  },
  {
    "nom": "CRISENOY",
    "code_postal": 77390,
    "departement": 77
  },
  {
    "nom": "CROISSY BEAUBOURG",
    "code_postal": 77183,
    "departement": 77
  },
  {
    "nom": "CROISSY BEAUBOURG",
    "code_postal": 77183,
    "departement": 77
  },
  {
    "nom": "LA CROIX EN BRIE",
    "code_postal": 77370,
    "departement": 77
  },
  {
    "nom": "CROUY SUR OURCQ",
    "code_postal": 77840,
    "departement": 77
  },
  {
    "nom": "CUISY",
    "code_postal": 77165,
    "departement": 77
  },
  {
    "nom": "DAGNY",
    "code_postal": 77320,
    "departement": 77
  },
  {
    "nom": "DAMMARIE LES LYS",
    "code_postal": 77190,
    "departement": 77
  },
  {
    "nom": "DAMMARTIN EN GOELE",
    "code_postal": 77230,
    "departement": 77
  },
  {
    "nom": "DAMMARTIN SUR TIGEAUX",
    "code_postal": 77163,
    "departement": 77
  },
  {
    "nom": "DAMPMART",
    "code_postal": 77400,
    "departement": 77
  },
  {
    "nom": "DARVAULT",
    "code_postal": 77140,
    "departement": 77
  },
  {
    "nom": "DHUISY",
    "code_postal": 77440,
    "departement": 77
  },
  {
    "nom": "DIANT",
    "code_postal": 77940,
    "departement": 77
  },
  {
    "nom": "DONNEMARIE DONTILLY",
    "code_postal": 77520,
    "departement": 77
  },
  {
    "nom": "DORMELLES",
    "code_postal": 77130,
    "departement": 77
  },
  {
    "nom": "DOUE",
    "code_postal": 77510,
    "departement": 77
  },
  {
    "nom": "DOUY LA RAMEE",
    "code_postal": 77139,
    "departement": 77
  },
  {
    "nom": "ECHOUBOULAINS",
    "code_postal": 77830,
    "departement": 77
  },
  {
    "nom": "LES ECRENNES",
    "code_postal": 77820,
    "departement": 77
  },
  {
    "nom": "EGLIGNY",
    "code_postal": 77126,
    "departement": 77
  },
  {
    "nom": "EGREVILLE",
    "code_postal": 77620,
    "departement": 77
  },
  {
    "nom": "EMERAINVILLE",
    "code_postal": 77184,
    "departement": 77
  },
  {
    "nom": "EMERAINVILLE",
    "code_postal": 77184,
    "departement": 77
  },
  {
    "nom": "ESBLY",
    "code_postal": 77450,
    "departement": 77
  },
  {
    "nom": "ESMANS",
    "code_postal": 77940,
    "departement": 77
  },
  {
    "nom": "ETREPILLY",
    "code_postal": 77139,
    "departement": 77
  },
  {
    "nom": "EVERLY",
    "code_postal": 77157,
    "departement": 77
  },
  {
    "nom": "EVRY GREGY SUR YERRE",
    "code_postal": 77166,
    "departement": 77
  },
  {
    "nom": "EVRY GREGY SUR YERRE",
    "code_postal": 77166,
    "departement": 77
  },
  {
    "nom": "FAREMOUTIERS",
    "code_postal": 77515,
    "departement": 77
  },
  {
    "nom": "FAVIERES",
    "code_postal": 77220,
    "departement": 77
  },
  {
    "nom": "FAY LES NEMOURS",
    "code_postal": 77167,
    "departement": 77
  },
  {
    "nom": "FERICY",
    "code_postal": 77133,
    "departement": 77
  },
  {
    "nom": "FEROLLES ATTILLY",
    "code_postal": 77150,
    "departement": 77
  },
  {
    "nom": "FERRIERES EN BRIE",
    "code_postal": 77164,
    "departement": 77
  },
  {
    "nom": "LA FERTE GAUCHER",
    "code_postal": 77320,
    "departement": 77
  },
  {
    "nom": "LA FERTE SOUS JOUARRE",
    "code_postal": 77260,
    "departement": 77
  },
  {
    "nom": "FLAGY",
    "code_postal": 77940,
    "departement": 77
  },
  {
    "nom": "FLEURY EN BIERE",
    "code_postal": 77930,
    "departement": 77
  },
  {
    "nom": "FONTAINEBLEAU",
    "code_postal": 77300,
    "departement": 77
  },
  {
    "nom": "FONTAINE FOURCHES",
    "code_postal": 77480,
    "departement": 77
  },
  {
    "nom": "FONTAINE LE PORT",
    "code_postal": 77590,
    "departement": 77
  },
  {
    "nom": "FONTAINS",
    "code_postal": 77370,
    "departement": 77
  },
  {
    "nom": "FONTENAILLES",
    "code_postal": 77370,
    "departement": 77
  },
  {
    "nom": "FONTENAY TRESIGNY",
    "code_postal": 77610,
    "departement": 77
  },
  {
    "nom": "FORFRY",
    "code_postal": 77165,
    "departement": 77
  },
  {
    "nom": "FORGES",
    "code_postal": 77130,
    "departement": 77
  },
  {
    "nom": "FOUJU",
    "code_postal": 77390,
    "departement": 77
  },
  {
    "nom": "FRESNES SUR MARNE",
    "code_postal": 77410,
    "departement": 77
  },
  {
    "nom": "FRETOY",
    "code_postal": 77320,
    "departement": 77
  },
  {
    "nom": "FROMONT",
    "code_postal": 77760,
    "departement": 77
  },
  {
    "nom": "FUBLAINES",
    "code_postal": 77470,
    "departement": 77
  },
  {
    "nom": "GARENTREVILLE",
    "code_postal": 77890,
    "departement": 77
  },
  {
    "nom": "GASTINS",
    "code_postal": 77370,
    "departement": 77
  },
  {
    "nom": "LA GENEVRAYE",
    "code_postal": 77690,
    "departement": 77
  },
  {
    "nom": "GERMIGNY L EVEQUE",
    "code_postal": 77910,
    "departement": 77
  },
  {
    "nom": "GERMIGNY SOUS COULOMBS",
    "code_postal": 77840,
    "departement": 77
  },
  {
    "nom": "GESVRES LE CHAPITRE",
    "code_postal": 77165,
    "departement": 77
  },
  {
    "nom": "GIREMOUTIERS",
    "code_postal": 77120,
    "departement": 77
  },
  {
    "nom": "GIRONVILLE",
    "code_postal": 77890,
    "departement": 77
  },
  {
    "nom": "GOUAIX",
    "code_postal": 77114,
    "departement": 77
  },
  {
    "nom": "GOUVERNES",
    "code_postal": 77400,
    "departement": 77
  },
  {
    "nom": "LA GRANDE PAROISSE",
    "code_postal": 77130,
    "departement": 77
  },
  {
    "nom": "GRANDPUITS BAILLY CARROIS",
    "code_postal": 77720,
    "departement": 77
  },
  {
    "nom": "GRANDPUITS BAILLY CARROIS",
    "code_postal": 77720,
    "departement": 77
  },
  {
    "nom": "GRAVON",
    "code_postal": 77118,
    "departement": 77
  },
  {
    "nom": "GRESSY",
    "code_postal": 77410,
    "departement": 77
  },
  {
    "nom": "GRETZ ARMAINVILLIERS",
    "code_postal": 77220,
    "departement": 77
  },
  {
    "nom": "GREZ SUR LOING",
    "code_postal": 77880,
    "departement": 77
  },
  {
    "nom": "GRISY SUISNES",
    "code_postal": 77166,
    "departement": 77
  },
  {
    "nom": "GRISY SUISNES",
    "code_postal": 77166,
    "departement": 77
  },
  {
    "nom": "GRISY SUR SEINE",
    "code_postal": 77480,
    "departement": 77
  },
  {
    "nom": "GUERARD",
    "code_postal": 77580,
    "departement": 77
  },
  {
    "nom": "GUERCHEVILLE",
    "code_postal": 77760,
    "departement": 77
  },
  {
    "nom": "GUERMANTES",
    "code_postal": 77600,
    "departement": 77
  },
  {
    "nom": "GUIGNES",
    "code_postal": 77390,
    "departement": 77
  },
  {
    "nom": "GURCY LE CHATEL",
    "code_postal": 77520,
    "departement": 77
  },
  {
    "nom": "GURCY LE CHATEL",
    "code_postal": 77520,
    "departement": 77
  },
  {
    "nom": "HAUTEFEUILLE",
    "code_postal": 77515,
    "departement": 77
  },
  {
    "nom": "LA HAUTE MAISON",
    "code_postal": 77580,
    "departement": 77
  },
  {
    "nom": "HERICY",
    "code_postal": 77850,
    "departement": 77
  },
  {
    "nom": "HERME",
    "code_postal": 77114,
    "departement": 77
  },
  {
    "nom": "HONDEVILLIERS",
    "code_postal": 77510,
    "departement": 77
  },
  {
    "nom": "LA HOUSSAYE EN BRIE",
    "code_postal": 77610,
    "departement": 77
  },
  {
    "nom": "ICHY",
    "code_postal": 77890,
    "departement": 77
  },
  {
    "nom": "ISLES LES MELDEUSES",
    "code_postal": 77440,
    "departement": 77
  },
  {
    "nom": "ISLES LES VILLENOY",
    "code_postal": 77450,
    "departement": 77
  },
  {
    "nom": "IVERNY",
    "code_postal": 77165,
    "departement": 77
  },
  {
    "nom": "JABLINES",
    "code_postal": 77450,
    "departement": 77
  },
  {
    "nom": "JAIGNES",
    "code_postal": 77440,
    "departement": 77
  },
  {
    "nom": "JAULNES",
    "code_postal": 77480,
    "departement": 77
  },
  {
    "nom": "JOSSIGNY",
    "code_postal": 77600,
    "departement": 77
  },
  {
    "nom": "JOUARRE",
    "code_postal": 77640,
    "departement": 77
  },
  {
    "nom": "JOUY LE CHATEL",
    "code_postal": 77970,
    "departement": 77
  },
  {
    "nom": "JOUY SUR MORIN",
    "code_postal": 77320,
    "departement": 77
  },
  {
    "nom": "JUILLY",
    "code_postal": 77230,
    "departement": 77
  },
  {
    "nom": "JUTIGNY",
    "code_postal": 77650,
    "departement": 77
  },
  {
    "nom": "LAGNY SUR MARNE",
    "code_postal": 77400,
    "departement": 77
  },
  {
    "nom": "LARCHANT",
    "code_postal": 77760,
    "departement": 77
  },
  {
    "nom": "LAVAL EN BRIE",
    "code_postal": 77148,
    "departement": 77
  },
  {
    "nom": "LECHELLE",
    "code_postal": 77171,
    "departement": 77
  },
  {
    "nom": "LESCHEROLLES",
    "code_postal": 77320,
    "departement": 77
  },
  {
    "nom": "LESCHES",
    "code_postal": 77450,
    "departement": 77
  },
  {
    "nom": "LESIGNY",
    "code_postal": 77150,
    "departement": 77
  },
  {
    "nom": "LEUDON EN BRIE",
    "code_postal": 77320,
    "departement": 77
  },
  {
    "nom": "LIEUSAINT",
    "code_postal": 77127,
    "departement": 77
  },
  {
    "nom": "LIMOGES FOURCHES",
    "code_postal": 77550,
    "departement": 77
  },
  {
    "nom": "LISSY",
    "code_postal": 77550,
    "departement": 77
  },
  {
    "nom": "LIVERDY EN BRIE",
    "code_postal": 77220,
    "departement": 77
  },
  {
    "nom": "LIVRY SUR SEINE",
    "code_postal": 77000,
    "departement": 77
  },
  {
    "nom": "LIZINES",
    "code_postal": 77650,
    "departement": 77
  },
  {
    "nom": "LIZY SUR OURCQ",
    "code_postal": 77440,
    "departement": 77
  },
  {
    "nom": "LOGNES",
    "code_postal": 77185,
    "departement": 77
  },
  {
    "nom": "LONGPERRIER",
    "code_postal": 77230,
    "departement": 77
  },
  {
    "nom": "LONGUEVILLE",
    "code_postal": 77650,
    "departement": 77
  },
  {
    "nom": "LORREZ LE BOCAGE PREAUX",
    "code_postal": 77710,
    "departement": 77
  },
  {
    "nom": "LORREZ LE BOCAGE PREAUX",
    "code_postal": 77710,
    "departement": 77
  },
  {
    "nom": "LOUAN VILLEGRUIS FONTAINE",
    "code_postal": 77560,
    "departement": 77
  },
  {
    "nom": "LOUAN VILLEGRUIS FONTAINE",
    "code_postal": 77560,
    "departement": 77
  },
  {
    "nom": "LOUAN VILLEGRUIS FONTAINE",
    "code_postal": 77560,
    "departement": 77
  },
  {
    "nom": "LUISETAINES",
    "code_postal": 77520,
    "departement": 77
  },
  {
    "nom": "LUMIGNY NESLES ORMEAUX",
    "code_postal": 77540,
    "departement": 77
  },
  {
    "nom": "LUMIGNY NESLES ORMEAUX",
    "code_postal": 77540,
    "departement": 77
  },
  {
    "nom": "LUMIGNY NESLES ORMEAUX",
    "code_postal": 77540,
    "departement": 77
  },
  {
    "nom": "LUZANCY",
    "code_postal": 77138,
    "departement": 77
  },
  {
    "nom": "MACHAULT",
    "code_postal": 77133,
    "departement": 77
  },
  {
    "nom": "LA MADELEINE SUR LOING",
    "code_postal": 77570,
    "departement": 77
  },
  {
    "nom": "MAGNY LE HONGRE",
    "code_postal": 77700,
    "departement": 77
  },
  {
    "nom": "MAINCY",
    "code_postal": 77950,
    "departement": 77
  },
  {
    "nom": "MAISONCELLES EN BRIE",
    "code_postal": 77580,
    "departement": 77
  },
  {
    "nom": "MAISONCELLES EN GATINAIS",
    "code_postal": 77570,
    "departement": 77
  },
  {
    "nom": "MAISON ROUGE",
    "code_postal": 77370,
    "departement": 77
  },
  {
    "nom": "MARCHEMORET",
    "code_postal": 77230,
    "departement": 77
  },
  {
    "nom": "MARCILLY",
    "code_postal": 77139,
    "departement": 77
  },
  {
    "nom": "LES MARETS",
    "code_postal": 77560,
    "departement": 77
  },
  {
    "nom": "MAREUIL LES MEAUX",
    "code_postal": 77100,
    "departement": 77
  },
  {
    "nom": "MARLES EN BRIE",
    "code_postal": 77610,
    "departement": 77
  },
  {
    "nom": "MAROLLES EN BRIE",
    "code_postal": 77120,
    "departement": 77
  },
  {
    "nom": "MAROLLES SUR SEINE",
    "code_postal": 77130,
    "departement": 77
  },
  {
    "nom": "MARY SUR MARNE",
    "code_postal": 77440,
    "departement": 77
  },
  {
    "nom": "MAUPERTHUIS",
    "code_postal": 77120,
    "departement": 77
  },
  {
    "nom": "MAUREGARD",
    "code_postal": 77990,
    "departement": 77
  },
  {
    "nom": "MAY EN MULTIEN",
    "code_postal": 77145,
    "departement": 77
  },
  {
    "nom": "MEAUX",
    "code_postal": 77100,
    "departement": 77
  },
  {
    "nom": "LE MEE SUR SEINE",
    "code_postal": 77350,
    "departement": 77
  },
  {
    "nom": "MEIGNEUX",
    "code_postal": 77520,
    "departement": 77
  },
  {
    "nom": "MEILLERAY",
    "code_postal": 77320,
    "departement": 77
  },
  {
    "nom": "MELUN",
    "code_postal": 77000,
    "departement": 77
  },
  {
    "nom": "MELZ SUR SEINE",
    "code_postal": 77171,
    "departement": 77
  },
  {
    "nom": "MERY SUR MARNE",
    "code_postal": 77730,
    "departement": 77
  },
  {
    "nom": "LE MESNIL AMELOT",
    "code_postal": 77990,
    "departement": 77
  },
  {
    "nom": "MESSY",
    "code_postal": 77410,
    "departement": 77
  },
  {
    "nom": "MISY SUR YONNE",
    "code_postal": 77130,
    "departement": 77
  },
  {
    "nom": "MITRY MORY",
    "code_postal": 77290,
    "departement": 77
  },
  {
    "nom": "MOISENAY",
    "code_postal": 77950,
    "departement": 77
  },
  {
    "nom": "MOISSY CRAMAYEL",
    "code_postal": 77550,
    "departement": 77
  },
  {
    "nom": "MONDREVILLE",
    "code_postal": 77570,
    "departement": 77
  },
  {
    "nom": "MONS EN MONTOIS",
    "code_postal": 77520,
    "departement": 77
  },
  {
    "nom": "MONTCEAUX LES MEAUX",
    "code_postal": 77470,
    "departement": 77
  },
  {
    "nom": "MONTCEAUX LES PROVINS",
    "code_postal": 77151,
    "departement": 77
  },
  {
    "nom": "MONCOURT FROMONVILLE",
    "code_postal": 77140,
    "departement": 77
  },
  {
    "nom": "MONTDAUPHIN",
    "code_postal": 77320,
    "departement": 77
  },
  {
    "nom": "MONTENILS",
    "code_postal": 77320,
    "departement": 77
  },
  {
    "nom": "MONTEREAU FAULT YONNE",
    "code_postal": 77130,
    "departement": 77
  },
  {
    "nom": "MONTEREAU SUR LE JARD",
    "code_postal": 77950,
    "departement": 77
  },
  {
    "nom": "MONTEVRAIN",
    "code_postal": 77144,
    "departement": 77
  },
  {
    "nom": "MONTGE EN GOELE",
    "code_postal": 77230,
    "departement": 77
  },
  {
    "nom": "MONTHYON",
    "code_postal": 77122,
    "departement": 77
  },
  {
    "nom": "MONTIGNY LE GUESDIER",
    "code_postal": 77480,
    "departement": 77
  },
  {
    "nom": "MONTIGNY LENCOUP",
    "code_postal": 77520,
    "departement": 77
  },
  {
    "nom": "MONTIGNY SUR LOING",
    "code_postal": 77690,
    "departement": 77
  },
  {
    "nom": "MONTMACHOUX",
    "code_postal": 77940,
    "departement": 77
  },
  {
    "nom": "MONTOLIVET",
    "code_postal": 77320,
    "departement": 77
  },
  {
    "nom": "MONTRY",
    "code_postal": 77450,
    "departement": 77
  },
  {
    "nom": "MORET LOING ET ORVANNE",
    "code_postal": 77250,
    "departement": 77
  },
  {
    "nom": "MORET LOING ET ORVANNE",
    "code_postal": 77250,
    "departement": 77
  },
  {
    "nom": "MORET LOING ET ORVANNE",
    "code_postal": 77250,
    "departement": 77
  },
  {
    "nom": "MORET LOING ET ORVANNE",
    "code_postal": 77250,
    "departement": 77
  },
  {
    "nom": "MORET LOING ET ORVANNE",
    "code_postal": 77250,
    "departement": 77
  },
  {
    "nom": "MORMANT",
    "code_postal": 77720,
    "departement": 77
  },
  {
    "nom": "MORTCERF",
    "code_postal": 77163,
    "departement": 77
  },
  {
    "nom": "MORTERY",
    "code_postal": 77160,
    "departement": 77
  },
  {
    "nom": "MOUROUX",
    "code_postal": 77120,
    "departement": 77
  },
  {
    "nom": "MOUSSEAUX LES BRAY",
    "code_postal": 77480,
    "departement": 77
  },
  {
    "nom": "MOUSSY LE NEUF",
    "code_postal": 77230,
    "departement": 77
  },
  {
    "nom": "MOUSSY LE VIEUX",
    "code_postal": 77230,
    "departement": 77
  },
  {
    "nom": "MOUY SUR SEINE",
    "code_postal": 77480,
    "departement": 77
  },
  {
    "nom": "NANDY",
    "code_postal": 77176,
    "departement": 77
  },
  {
    "nom": "NANGIS",
    "code_postal": 77370,
    "departement": 77
  },
  {
    "nom": "NANTEAU SUR ESSONNE",
    "code_postal": 77760,
    "departement": 77
  },
  {
    "nom": "NANTEAU SUR LUNAIN",
    "code_postal": 77710,
    "departement": 77
  },
  {
    "nom": "NANTEUIL LES MEAUX",
    "code_postal": 77100,
    "departement": 77
  },
  {
    "nom": "NANTEUIL SUR MARNE",
    "code_postal": 77730,
    "departement": 77
  },
  {
    "nom": "NANTOUILLET",
    "code_postal": 77230,
    "departement": 77
  },
  {
    "nom": "NEMOURS",
    "code_postal": 77140,
    "departement": 77
  },
  {
    "nom": "CHAUCONIN NEUFMONTIERS",
    "code_postal": 77124,
    "departement": 77
  },
  {
    "nom": "CHAUCONIN NEUFMONTIERS",
    "code_postal": 77124,
    "departement": 77
  },
  {
    "nom": "CHAUCONIN NEUFMONTIERS",
    "code_postal": 77124,
    "departement": 77
  },
  {
    "nom": "NEUFMOUTIERS EN BRIE",
    "code_postal": 77610,
    "departement": 77
  },
  {
    "nom": "NOISIEL",
    "code_postal": 77186,
    "departement": 77
  },
  {
    "nom": "NOISY RUDIGNON",
    "code_postal": 77940,
    "departement": 77
  },
  {
    "nom": "NOISY SUR ECOLE",
    "code_postal": 77123,
    "departement": 77
  },
  {
    "nom": "NONVILLE",
    "code_postal": 77140,
    "departement": 77
  },
  {
    "nom": "NOYEN SUR SEINE",
    "code_postal": 77114,
    "departement": 77
  },
  {
    "nom": "OBSONVILLE",
    "code_postal": 77890,
    "departement": 77
  },
  {
    "nom": "OCQUERRE",
    "code_postal": 77440,
    "departement": 77
  },
  {
    "nom": "OISSERY",
    "code_postal": 77178,
    "departement": 77
  },
  {
    "nom": "ORLY SUR MORIN",
    "code_postal": 77750,
    "departement": 77
  },
  {
    "nom": "LES ORMES SUR VOULZIE",
    "code_postal": 77134,
    "departement": 77
  },
  {
    "nom": "ORMESSON",
    "code_postal": 77167,
    "departement": 77
  },
  {
    "nom": "OTHIS",
    "code_postal": 77280,
    "departement": 77
  },
  {
    "nom": "OZOIR LA FERRIERE",
    "code_postal": 77330,
    "departement": 77
  },
  {
    "nom": "OZOUER LE VOULGIS",
    "code_postal": 77390,
    "departement": 77
  },
  {
    "nom": "PALEY",
    "code_postal": 77710,
    "departement": 77
  },
  {
    "nom": "PAMFOU",
    "code_postal": 77830,
    "departement": 77
  },
  {
    "nom": "PAROY",
    "code_postal": 77520,
    "departement": 77
  },
  {
    "nom": "PASSY SUR SEINE",
    "code_postal": 77480,
    "departement": 77
  },
  {
    "nom": "PECY",
    "code_postal": 77970,
    "departement": 77
  },
  {
    "nom": "PENCHARD",
    "code_postal": 77124,
    "departement": 77
  },
  {
    "nom": "PERTHES",
    "code_postal": 77930,
    "departement": 77
  },
  {
    "nom": "PEZARCHES",
    "code_postal": 77131,
    "departement": 77
  },
  {
    "nom": "PIERRE LEVEE",
    "code_postal": 77580,
    "departement": 77
  },
  {
    "nom": "LE PIN",
    "code_postal": 77181,
    "departement": 77
  },
  {
    "nom": "LE PLESSIS AUX BOIS",
    "code_postal": 77165,
    "departement": 77
  },
  {
    "nom": "LE PLESSIS FEU AUSSOUX",
    "code_postal": 77540,
    "departement": 77
  },
  {
    "nom": "LE PLESSIS L EVEQUE",
    "code_postal": 77165,
    "departement": 77
  },
  {
    "nom": "LE PLESSIS PLACY",
    "code_postal": 77440,
    "departement": 77
  },
  {
    "nom": "POIGNY",
    "code_postal": 77160,
    "departement": 77
  },
  {
    "nom": "POINCY",
    "code_postal": 77470,
    "departement": 77
  },
  {
    "nom": "POLIGNY",
    "code_postal": 77167,
    "departement": 77
  },
  {
    "nom": "POMMEUSE",
    "code_postal": 77515,
    "departement": 77
  },
  {
    "nom": "POMPONNE",
    "code_postal": 77400,
    "departement": 77
  },
  {
    "nom": "POMPONNE",
    "code_postal": 77400,
    "departement": 77
  },
  {
    "nom": "PONTAULT COMBAULT",
    "code_postal": 77340,
    "departement": 77
  },
  {
    "nom": "PONTAULT COMBAULT",
    "code_postal": 77340,
    "departement": 77
  },
  {
    "nom": "PONTCARRE",
    "code_postal": 77135,
    "departement": 77
  },
  {
    "nom": "PRECY SUR MARNE",
    "code_postal": 77410,
    "departement": 77
  },
  {
    "nom": "PRESLES EN BRIE",
    "code_postal": 77220,
    "departement": 77
  },
  {
    "nom": "PRINGY",
    "code_postal": 77310,
    "departement": 77
  },
  {
    "nom": "PROVINS",
    "code_postal": 77160,
    "departement": 77
  },
  {
    "nom": "PUISIEUX",
    "code_postal": 77139,
    "departement": 77
  },
  {
    "nom": "QUIERS",
    "code_postal": 77720,
    "departement": 77
  },
  {
    "nom": "QUINCY VOISINS",
    "code_postal": 77860,
    "departement": 77
  },
  {
    "nom": "RAMPILLON",
    "code_postal": 77370,
    "departement": 77
  },
  {
    "nom": "REAU",
    "code_postal": 77550,
    "departement": 77
  },
  {
    "nom": "REBAIS",
    "code_postal": 77510,
    "departement": 77
  },
  {
    "nom": "RECLOSES",
    "code_postal": 77760,
    "departement": 77
  },
  {
    "nom": "REMAUVILLE",
    "code_postal": 77710,
    "departement": 77
  },
  {
    "nom": "REUIL EN BRIE",
    "code_postal": 77260,
    "departement": 77
  },
  {
    "nom": "LA ROCHETTE",
    "code_postal": 77000,
    "departement": 77
  },
  {
    "nom": "ROISSY EN BRIE",
    "code_postal": 77680,
    "departement": 77
  },
  {
    "nom": "ROUILLY",
    "code_postal": 77160,
    "departement": 77
  },
  {
    "nom": "ROUVRES",
    "code_postal": 77230,
    "departement": 77
  },
  {
    "nom": "ROZAY EN BRIE",
    "code_postal": 77540,
    "departement": 77
  },
  {
    "nom": "RUBELLES",
    "code_postal": 77950,
    "departement": 77
  },
  {
    "nom": "RUMONT",
    "code_postal": 77760,
    "departement": 77
  },
  {
    "nom": "RUPEREUX",
    "code_postal": 77560,
    "departement": 77
  },
  {
    "nom": "SAACY SUR MARNE",
    "code_postal": 77730,
    "departement": 77
  },
  {
    "nom": "SABLONNIERES",
    "code_postal": 77510,
    "departement": 77
  },
  {
    "nom": "ST AUGUSTIN",
    "code_postal": 77515,
    "departement": 77
  },
  {
    "nom": "STE AULDE",
    "code_postal": 77260,
    "departement": 77
  },
  {
    "nom": "ST BARTHELEMY",
    "code_postal": 77320,
    "departement": 77
  },
  {
    "nom": "ST BRICE",
    "code_postal": 77160,
    "departement": 77
  },
  {
    "nom": "STE COLOMBE",
    "code_postal": 77650,
    "departement": 77
  },
  {
    "nom": "ST CYR SUR MORIN",
    "code_postal": 77750,
    "departement": 77
  },
  {
    "nom": "ST DENIS LES REBAIS",
    "code_postal": 77510,
    "departement": 77
  },
  {
    "nom": "ST FARGEAU PONTHIERRY",
    "code_postal": 77310,
    "departement": 77
  },
  {
    "nom": "ST FARGEAU PONTHIERRY",
    "code_postal": 77310,
    "departement": 77
  },
  {
    "nom": "ST FIACRE",
    "code_postal": 77470,
    "departement": 77
  },
  {
    "nom": "ST GERMAIN LAVAL",
    "code_postal": 77130,
    "departement": 77
  },
  {
    "nom": "ST GERMAIN LAXIS",
    "code_postal": 77950,
    "departement": 77
  },
  {
    "nom": "ST GERMAIN SOUS DOUE",
    "code_postal": 77169,
    "departement": 77
  },
  {
    "nom": "ST GERMAIN SUR ECOLE",
    "code_postal": 77930,
    "departement": 77
  },
  {
    "nom": "ST GERMAIN SUR MORIN",
    "code_postal": 77860,
    "departement": 77
  },
  {
    "nom": "ST HILLIERS",
    "code_postal": 77160,
    "departement": 77
  },
  {
    "nom": "ST JEAN LES DEUX JUMEAUX",
    "code_postal": 77660,
    "departement": 77
  },
  {
    "nom": "ST JUST EN BRIE",
    "code_postal": 77370,
    "departement": 77
  },
  {
    "nom": "ST LEGER",
    "code_postal": 77510,
    "departement": 77
  },
  {
    "nom": "ST LOUP DE NAUD",
    "code_postal": 77650,
    "departement": 77
  },
  {
    "nom": "ST MAMMES",
    "code_postal": 77670,
    "departement": 77
  },
  {
    "nom": "ST MARD",
    "code_postal": 77230,
    "departement": 77
  },
  {
    "nom": "ST MARS VIEUX MAISONS",
    "code_postal": 77320,
    "departement": 77
  },
  {
    "nom": "ST MARS VIEUX MAISONS",
    "code_postal": 77320,
    "departement": 77
  },
  {
    "nom": "ST MARTIN DES CHAMPS",
    "code_postal": 77320,
    "departement": 77
  },
  {
    "nom": "ST MARTIN DU BOSCHET",
    "code_postal": 77320,
    "departement": 77
  },
  {
    "nom": "ST MARTIN EN BIERE",
    "code_postal": 77630,
    "departement": 77
  },
  {
    "nom": "ST MERY",
    "code_postal": 77720,
    "departement": 77
  },
  {
    "nom": "ST MESMES",
    "code_postal": 77410,
    "departement": 77
  },
  {
    "nom": "ST OUEN EN BRIE",
    "code_postal": 77720,
    "departement": 77
  },
  {
    "nom": "ST OUEN SUR MORIN",
    "code_postal": 77750,
    "departement": 77
  },
  {
    "nom": "ST PATHUS",
    "code_postal": 77178,
    "departement": 77
  },
  {
    "nom": "ST PIERRE LES NEMOURS",
    "code_postal": 77140,
    "departement": 77
  },
  {
    "nom": "ST REMY DE LA VANNE",
    "code_postal": 77320,
    "departement": 77
  },
  {
    "nom": "BEAUTHEIL SAINTS",
    "code_postal": 77120,
    "departement": 77
  },
  {
    "nom": "BEAUTHEIL SAINTS",
    "code_postal": 77120,
    "departement": 77
  },
  {
    "nom": "ST SAUVEUR LES BRAY",
    "code_postal": 77480,
    "departement": 77
  },
  {
    "nom": "ST SAUVEUR SUR ECOLE",
    "code_postal": 77930,
    "departement": 77
  },
  {
    "nom": "ST SIMEON",
    "code_postal": 77169,
    "departement": 77
  },
  {
    "nom": "ST SOUPPLETS",
    "code_postal": 77165,
    "departement": 77
  },
  {
    "nom": "ST THIBAULT DES VIGNES",
    "code_postal": 77400,
    "departement": 77
  },
  {
    "nom": "SALINS",
    "code_postal": 77148,
    "departement": 77
  },
  {
    "nom": "SAMMERON",
    "code_postal": 77260,
    "departement": 77
  },
  {
    "nom": "SAMOIS SUR SEINE",
    "code_postal": 77920,
    "departement": 77
  },
  {
    "nom": "SAMOREAU",
    "code_postal": 77210,
    "departement": 77
  },
  {
    "nom": "SANCY",
    "code_postal": 77580,
    "departement": 77
  },
  {
    "nom": "SANCY LES PROVINS",
    "code_postal": 77320,
    "departement": 77
  },
  {
    "nom": "SAVIGNY LE TEMPLE",
    "code_postal": 77176,
    "departement": 77
  },
  {
    "nom": "SAVINS",
    "code_postal": 77650,
    "departement": 77
  },
  {
    "nom": "SEINE PORT",
    "code_postal": 77240,
    "departement": 77
  },
  {
    "nom": "SEPT SORTS",
    "code_postal": 77260,
    "departement": 77
  },
  {
    "nom": "SERRIS",
    "code_postal": 77700,
    "departement": 77
  },
  {
    "nom": "SERVON",
    "code_postal": 77170,
    "departement": 77
  },
  {
    "nom": "SIGNY SIGNETS",
    "code_postal": 77640,
    "departement": 77
  },
  {
    "nom": "SIGY",
    "code_postal": 77520,
    "departement": 77
  },
  {
    "nom": "SIVRY COURTRY",
    "code_postal": 77115,
    "departement": 77
  },
  {
    "nom": "SOGNOLLES EN MONTOIS",
    "code_postal": 77520,
    "departement": 77
  },
  {
    "nom": "SOIGNOLLES EN BRIE",
    "code_postal": 77111,
    "departement": 77
  },
  {
    "nom": "SOISY BOUY",
    "code_postal": 77650,
    "departement": 77
  },
  {
    "nom": "SOLERS",
    "code_postal": 77111,
    "departement": 77
  },
  {
    "nom": "SOUPPES SUR LOING",
    "code_postal": 77460,
    "departement": 77
  },
  {
    "nom": "SOURDUN",
    "code_postal": 77171,
    "departement": 77
  },
  {
    "nom": "TANCROU",
    "code_postal": 77440,
    "departement": 77
  },
  {
    "nom": "THENISY",
    "code_postal": 77520,
    "departement": 77
  },
  {
    "nom": "THIEUX",
    "code_postal": 77230,
    "departement": 77
  },
  {
    "nom": "THOMERY",
    "code_postal": 77810,
    "departement": 77
  },
  {
    "nom": "THORIGNY SUR MARNE",
    "code_postal": 77400,
    "departement": 77
  },
  {
    "nom": "THOURY FEROTTES",
    "code_postal": 77940,
    "departement": 77
  },
  {
    "nom": "TIGEAUX",
    "code_postal": 77163,
    "departement": 77
  },
  {
    "nom": "LA TOMBE",
    "code_postal": 77130,
    "departement": 77
  },
  {
    "nom": "TORCY",
    "code_postal": 77200,
    "departement": 77
  },
  {
    "nom": "TOUQUIN",
    "code_postal": 77131,
    "departement": 77
  },
  {
    "nom": "TOURNAN EN BRIE",
    "code_postal": 77220,
    "departement": 77
  },
  {
    "nom": "TOUSSON",
    "code_postal": 77123,
    "departement": 77
  },
  {
    "nom": "LA TRETOIRE",
    "code_postal": 77510,
    "departement": 77
  },
  {
    "nom": "TREUZY LEVELAY",
    "code_postal": 77710,
    "departement": 77
  },
  {
    "nom": "TRILBARDOU",
    "code_postal": 77450,
    "departement": 77
  },
  {
    "nom": "TRILPORT",
    "code_postal": 77470,
    "departement": 77
  },
  {
    "nom": "TROCY EN MULTIEN",
    "code_postal": 77440,
    "departement": 77
  },
  {
    "nom": "URY",
    "code_postal": 77760,
    "departement": 77
  },
  {
    "nom": "USSY SUR MARNE",
    "code_postal": 77260,
    "departement": 77
  },
  {
    "nom": "VAIRES SUR MARNE",
    "code_postal": 77360,
    "departement": 77
  },
  {
    "nom": "VALENCE EN BRIE",
    "code_postal": 77830,
    "departement": 77
  },
  {
    "nom": "VANVILLE",
    "code_postal": 77370,
    "departement": 77
  },
  {
    "nom": "VARENNES SUR SEINE",
    "code_postal": 77130,
    "departement": 77
  },
  {
    "nom": "VARREDDES",
    "code_postal": 77910,
    "departement": 77
  },
  {
    "nom": "VAUCOURTOIS",
    "code_postal": 77580,
    "departement": 77
  },
  {
    "nom": "LE VAUDOUE",
    "code_postal": 77123,
    "departement": 77
  },
  {
    "nom": "VAUDOY EN BRIE",
    "code_postal": 77141,
    "departement": 77
  },
  {
    "nom": "VAUX LE PENIL",
    "code_postal": 77000,
    "departement": 77
  },
  {
    "nom": "VAUX SUR LUNAIN",
    "code_postal": 77710,
    "departement": 77
  },
  {
    "nom": "VENDREST",
    "code_postal": 77440,
    "departement": 77
  },
  {
    "nom": "VERDELOT",
    "code_postal": 77510,
    "departement": 77
  },
  {
    "nom": "VERNEUIL L ETANG",
    "code_postal": 77390,
    "departement": 77
  },
  {
    "nom": "VERNOU LA CELLE SUR SEINE",
    "code_postal": 77670,
    "departement": 77
  },
  {
    "nom": "VERNOU LA CELLE SUR SEINE",
    "code_postal": 77670,
    "departement": 77
  },
  {
    "nom": "VERT ST DENIS",
    "code_postal": 77240,
    "departement": 77
  },
  {
    "nom": "VIEUX CHAMPAGNE",
    "code_postal": 77370,
    "departement": 77
  },
  {
    "nom": "VIGNELY",
    "code_postal": 77450,
    "departement": 77
  },
  {
    "nom": "VILLEBEON",
    "code_postal": 77710,
    "departement": 77
  },
  {
    "nom": "VILLECERF",
    "code_postal": 77250,
    "departement": 77
  },
  {
    "nom": "VILLEMARECHAL",
    "code_postal": 77710,
    "departement": 77
  },
  {
    "nom": "VILLEMARECHAL",
    "code_postal": 77710,
    "departement": 77
  },
  {
    "nom": "VILLEMAREUIL",
    "code_postal": 77470,
    "departement": 77
  },
  {
    "nom": "VILLEMER",
    "code_postal": 77250,
    "departement": 77
  },
  {
    "nom": "VILLENAUXE LA PETITE",
    "code_postal": 77480,
    "departement": 77
  },
  {
    "nom": "VILLENEUVE LE COMTE",
    "code_postal": 77174,
    "departement": 77
  },
  {
    "nom": "VILLENEUVE LES BORDES",
    "code_postal": 77154,
    "departement": 77
  },
  {
    "nom": "VILLENEUVE ST DENIS",
    "code_postal": 77174,
    "departement": 77
  },
  {
    "nom": "VILLENEUVE SOUS DAMMARTIN",
    "code_postal": 77230,
    "departement": 77
  },
  {
    "nom": "VILLENEUVE SUR BELLOT",
    "code_postal": 77510,
    "departement": 77
  },
  {
    "nom": "VILLENOY",
    "code_postal": 77124,
    "departement": 77
  },
  {
    "nom": "VILLEPARISIS",
    "code_postal": 77270,
    "departement": 77
  },
  {
    "nom": "VILLEROY",
    "code_postal": 77410,
    "departement": 77
  },
  {
    "nom": "VILLE ST JACQUES",
    "code_postal": 77130,
    "departement": 77
  },
  {
    "nom": "VILLEVAUDE",
    "code_postal": 77410,
    "departement": 77
  },
  {
    "nom": "VILLEVAUDE",
    "code_postal": 77410,
    "departement": 77
  },
  {
    "nom": "VILLEVAUDE",
    "code_postal": 77410,
    "departement": 77
  },
  {
    "nom": "VILLIERS EN BIERE",
    "code_postal": 77190,
    "departement": 77
  },
  {
    "nom": "VILLIERS ST GEORGES",
    "code_postal": 77560,
    "departement": 77
  },
  {
    "nom": "VILLIERS SOUS GREZ",
    "code_postal": 77760,
    "departement": 77
  },
  {
    "nom": "VILLIERS SUR MORIN",
    "code_postal": 77580,
    "departement": 77
  },
  {
    "nom": "VILLIERS SUR SEINE",
    "code_postal": 77114,
    "departement": 77
  },
  {
    "nom": "VILLUIS",
    "code_postal": 77480,
    "departement": 77
  },
  {
    "nom": "VIMPELLES",
    "code_postal": 77520,
    "departement": 77
  },
  {
    "nom": "VINANTES",
    "code_postal": 77230,
    "departement": 77
  },
  {
    "nom": "VINCY MANOEUVRE",
    "code_postal": 77139,
    "departement": 77
  },
  {
    "nom": "VOINSLES",
    "code_postal": 77540,
    "departement": 77
  },
  {
    "nom": "VOISENON",
    "code_postal": 77950,
    "departement": 77
  },
  {
    "nom": "VOULANGIS",
    "code_postal": 77580,
    "departement": 77
  },
  {
    "nom": "VOULTON",
    "code_postal": 77560,
    "departement": 77
  },
  {
    "nom": "VOULX",
    "code_postal": 77940,
    "departement": 77
  },
  {
    "nom": "VULAINES LES PROVINS",
    "code_postal": 77160,
    "departement": 77
  },
  {
    "nom": "VULAINES SUR SEINE",
    "code_postal": 77870,
    "departement": 77
  },
  {
    "nom": "YEBLES",
    "code_postal": 77390,
    "departement": 77
  },
  {
    "nom": "ABLIS",
    "code_postal": 78660,
    "departement": 78
  },
  {
    "nom": "ACHERES",
    "code_postal": 78260,
    "departement": 78
  },
  {
    "nom": "ADAINVILLE",
    "code_postal": 78113,
    "departement": 78
  },
  {
    "nom": "AIGREMONT",
    "code_postal": 78240,
    "departement": 78
  },
  {
    "nom": "ALLAINVILLE",
    "code_postal": 78660,
    "departement": 78
  },
  {
    "nom": "LES ALLUETS LE ROI",
    "code_postal": 78580,
    "departement": 78
  },
  {
    "nom": "ANDELU",
    "code_postal": 78770,
    "departement": 78
  },
  {
    "nom": "ANDRESY",
    "code_postal": 78570,
    "departement": 78
  },
  {
    "nom": "ANDRESY",
    "code_postal": 78570,
    "departement": 78
  },
  {
    "nom": "ARNOUVILLE LES MANTES",
    "code_postal": 78790,
    "departement": 78
  },
  {
    "nom": "AUBERGENVILLE",
    "code_postal": 78410,
    "departement": 78
  },
  {
    "nom": "AUBERGENVILLE",
    "code_postal": 78410,
    "departement": 78
  },
  {
    "nom": "AUFFARGIS",
    "code_postal": 78610,
    "departement": 78
  },
  {
    "nom": "AUFFREVILLE BRASSEUIL",
    "code_postal": 78930,
    "departement": 78
  },
  {
    "nom": "AULNAY SUR MAULDRE",
    "code_postal": 78126,
    "departement": 78
  },
  {
    "nom": "AUTEUIL",
    "code_postal": 78770,
    "departement": 78
  },
  {
    "nom": "AUTOUILLET",
    "code_postal": 78770,
    "departement": 78
  },
  {
    "nom": "BAILLY",
    "code_postal": 78870,
    "departement": 78
  },
  {
    "nom": "BAZAINVILLE",
    "code_postal": 78550,
    "departement": 78
  },
  {
    "nom": "BAZEMONT",
    "code_postal": 78580,
    "departement": 78
  },
  {
    "nom": "BAZOCHES SUR GUYONNE",
    "code_postal": 78490,
    "departement": 78
  },
  {
    "nom": "BEHOUST",
    "code_postal": 78910,
    "departement": 78
  },
  {
    "nom": "BENNECOURT",
    "code_postal": 78270,
    "departement": 78
  },
  {
    "nom": "BEYNES",
    "code_postal": 78650,
    "departement": 78
  },
  {
    "nom": "BEYNES",
    "code_postal": 78650,
    "departement": 78
  },
  {
    "nom": "BEYNES",
    "code_postal": 78650,
    "departement": 78
  },
  {
    "nom": "BLARU",
    "code_postal": 78270,
    "departement": 78
  },
  {
    "nom": "BOINVILLE EN MANTOIS",
    "code_postal": 78930,
    "departement": 78
  },
  {
    "nom": "BOINVILLE LE GAILLARD",
    "code_postal": 78660,
    "departement": 78
  },
  {
    "nom": "BOINVILLIERS",
    "code_postal": 78200,
    "departement": 78
  },
  {
    "nom": "BOIS D ARCY",
    "code_postal": 78390,
    "departement": 78
  },
  {
    "nom": "BOISSETS",
    "code_postal": 78910,
    "departement": 78
  },
  {
    "nom": "LA BOISSIERE ECOLE",
    "code_postal": 78125,
    "departement": 78
  },
  {
    "nom": "BOISSY MAUVOISIN",
    "code_postal": 78200,
    "departement": 78
  },
  {
    "nom": "BOISSY SANS AVOIR",
    "code_postal": 78490,
    "departement": 78
  },
  {
    "nom": "BONNELLES",
    "code_postal": 78830,
    "departement": 78
  },
  {
    "nom": "BONNIERES SUR SEINE",
    "code_postal": 78270,
    "departement": 78
  },
  {
    "nom": "BOUAFLE",
    "code_postal": 78410,
    "departement": 78
  },
  {
    "nom": "BOUGIVAL",
    "code_postal": 78380,
    "departement": 78
  },
  {
    "nom": "BOURDONNE",
    "code_postal": 78113,
    "departement": 78
  },
  {
    "nom": "BREUIL BOIS ROBERT",
    "code_postal": 78930,
    "departement": 78
  },
  {
    "nom": "BREVAL",
    "code_postal": 78980,
    "departement": 78
  },
  {
    "nom": "LES BREVIAIRES",
    "code_postal": 78610,
    "departement": 78
  },
  {
    "nom": "BRUEIL EN VEXIN",
    "code_postal": 78440,
    "departement": 78
  },
  {
    "nom": "BUC",
    "code_postal": 78530,
    "departement": 78
  },
  {
    "nom": "BUCHELAY",
    "code_postal": 78200,
    "departement": 78
  },
  {
    "nom": "BULLION",
    "code_postal": 78830,
    "departement": 78
  },
  {
    "nom": "CARRIERES SOUS POISSY",
    "code_postal": 78955,
    "departement": 78
  },
  {
    "nom": "CARRIERES SOUS POISSY",
    "code_postal": 78955,
    "departement": 78
  },
  {
    "nom": "CARRIERES SUR SEINE",
    "code_postal": 78420,
    "departement": 78
  },
  {
    "nom": "LA CELLE LES BORDES",
    "code_postal": 78720,
    "departement": 78
  },
  {
    "nom": "LA CELLE ST CLOUD",
    "code_postal": 78170,
    "departement": 78
  },
  {
    "nom": "CERNAY LA VILLE",
    "code_postal": 78720,
    "departement": 78
  },
  {
    "nom": "CHAMBOURCY",
    "code_postal": 78240,
    "departement": 78
  },
  {
    "nom": "CHANTELOUP LES VIGNES",
    "code_postal": 78570,
    "departement": 78
  },
  {
    "nom": "CHAPET",
    "code_postal": 78130,
    "departement": 78
  },
  {
    "nom": "CHATEAUFORT",
    "code_postal": 78117,
    "departement": 78
  },
  {
    "nom": "CHATOU",
    "code_postal": 78400,
    "departement": 78
  },
  {
    "nom": "CHAUFOUR LES BONNIERES",
    "code_postal": 78270,
    "departement": 78
  },
  {
    "nom": "CHAVENAY",
    "code_postal": 78450,
    "departement": 78
  },
  {
    "nom": "LE CHESNAY ROCQUENCOURT",
    "code_postal": 78150,
    "departement": 78
  },
  {
    "nom": "LE CHESNAY ROCQUENCOURT",
    "code_postal": 78150,
    "departement": 78
  },
  {
    "nom": "LE CHESNAY ROCQUENCOURT",
    "code_postal": 78150,
    "departement": 78
  },
  {
    "nom": "CHEVREUSE",
    "code_postal": 78460,
    "departement": 78
  },
  {
    "nom": "CHOISEL",
    "code_postal": 78460,
    "departement": 78
  },
  {
    "nom": "CIVRY LA FORET",
    "code_postal": 78910,
    "departement": 78
  },
  {
    "nom": "CLAIREFONTAINE EN YVELINES",
    "code_postal": 78120,
    "departement": 78
  },
  {
    "nom": "LES CLAYES SOUS BOIS",
    "code_postal": 78340,
    "departement": 78
  },
  {
    "nom": "COIGNIERES",
    "code_postal": 78310,
    "departement": 78
  },
  {
    "nom": "CONDE SUR VESGRE",
    "code_postal": 78113,
    "departement": 78
  },
  {
    "nom": "CONFLANS STE HONORINE",
    "code_postal": 78700,
    "departement": 78
  },
  {
    "nom": "COURGENT",
    "code_postal": 78790,
    "departement": 78
  },
  {
    "nom": "CRAVENT",
    "code_postal": 78270,
    "departement": 78
  },
  {
    "nom": "CRESPIERES",
    "code_postal": 78121,
    "departement": 78
  },
  {
    "nom": "CROISSY SUR SEINE",
    "code_postal": 78290,
    "departement": 78
  },
  {
    "nom": "DAMMARTIN EN SERVE",
    "code_postal": 78111,
    "departement": 78
  },
  {
    "nom": "DAMPIERRE EN YVELINES",
    "code_postal": 78720,
    "departement": 78
  },
  {
    "nom": "DAMPIERRE EN YVELINES",
    "code_postal": 78720,
    "departement": 78
  },
  {
    "nom": "DANNEMARIE",
    "code_postal": 78550,
    "departement": 78
  },
  {
    "nom": "DAVRON",
    "code_postal": 78810,
    "departement": 78
  },
  {
    "nom": "DROCOURT",
    "code_postal": 78440,
    "departement": 78
  },
  {
    "nom": "ECQUEVILLY",
    "code_postal": 78920,
    "departement": 78
  },
  {
    "nom": "ELANCOURT",
    "code_postal": 78990,
    "departement": 78
  },
  {
    "nom": "EMANCE",
    "code_postal": 78125,
    "departement": 78
  },
  {
    "nom": "EPONE",
    "code_postal": 78680,
    "departement": 78
  },
  {
    "nom": "LES ESSARTS LE ROI",
    "code_postal": 78690,
    "departement": 78
  },
  {
    "nom": "LES ESSARTS LE ROI",
    "code_postal": 78690,
    "departement": 78
  },
  {
    "nom": "L ETANG LA VILLE",
    "code_postal": 78620,
    "departement": 78
  },
  {
    "nom": "EVECQUEMONT",
    "code_postal": 78740,
    "departement": 78
  },
  {
    "nom": "LA FALAISE",
    "code_postal": 78410,
    "departement": 78
  },
  {
    "nom": "FAVRIEUX",
    "code_postal": 78200,
    "departement": 78
  },
  {
    "nom": "FEUCHEROLLES",
    "code_postal": 78810,
    "departement": 78
  },
  {
    "nom": "FLACOURT",
    "code_postal": 78200,
    "departement": 78
  },
  {
    "nom": "FLEXANVILLE",
    "code_postal": 78910,
    "departement": 78
  },
  {
    "nom": "FLINS NEUVE EGLISE",
    "code_postal": 78790,
    "departement": 78
  },
  {
    "nom": "FLINS SUR SEINE",
    "code_postal": 78410,
    "departement": 78
  },
  {
    "nom": "FOLLAINVILLE DENNEMONT",
    "code_postal": 78520,
    "departement": 78
  },
  {
    "nom": "FONTENAY LE FLEURY",
    "code_postal": 78330,
    "departement": 78
  },
  {
    "nom": "FONTENAY MAUVOISIN",
    "code_postal": 78200,
    "departement": 78
  },
  {
    "nom": "FONTENAY ST PERE",
    "code_postal": 78440,
    "departement": 78
  },
  {
    "nom": "FRENEUSE",
    "code_postal": 78840,
    "departement": 78
  },
  {
    "nom": "GAILLON SUR MONTCIENT",
    "code_postal": 78250,
    "departement": 78
  },
  {
    "nom": "GALLUIS",
    "code_postal": 78490,
    "departement": 78
  },
  {
    "nom": "GAMBAIS",
    "code_postal": 78950,
    "departement": 78
  },
  {
    "nom": "GAMBAISEUIL",
    "code_postal": 78490,
    "departement": 78
  },
  {
    "nom": "GARANCIERES",
    "code_postal": 78890,
    "departement": 78
  },
  {
    "nom": "GARGENVILLE",
    "code_postal": 78440,
    "departement": 78
  },
  {
    "nom": "GAZERAN",
    "code_postal": 78125,
    "departement": 78
  },
  {
    "nom": "GOMMECOURT",
    "code_postal": 78270,
    "departement": 78
  },
  {
    "nom": "GOUPILLIERES",
    "code_postal": 78770,
    "departement": 78
  },
  {
    "nom": "GOUSSONVILLE",
    "code_postal": 78930,
    "departement": 78
  },
  {
    "nom": "GRANDCHAMP",
    "code_postal": 78113,
    "departement": 78
  },
  {
    "nom": "GRESSEY",
    "code_postal": 78550,
    "departement": 78
  },
  {
    "nom": "GROSROUVRE",
    "code_postal": 78490,
    "departement": 78
  },
  {
    "nom": "GUERNES",
    "code_postal": 78520,
    "departement": 78
  },
  {
    "nom": "GUERVILLE",
    "code_postal": 78930,
    "departement": 78
  },
  {
    "nom": "GUITRANCOURT",
    "code_postal": 78440,
    "departement": 78
  },
  {
    "nom": "GUYANCOURT",
    "code_postal": 78280,
    "departement": 78
  },
  {
    "nom": "GUYANCOURT",
    "code_postal": 78280,
    "departement": 78
  },
  {
    "nom": "GUYANCOURT",
    "code_postal": 78280,
    "departement": 78
  },
  {
    "nom": "HARDRICOURT",
    "code_postal": 78250,
    "departement": 78
  },
  {
    "nom": "HARGEVILLE",
    "code_postal": 78790,
    "departement": 78
  },
  {
    "nom": "LA HAUTEVILLE",
    "code_postal": 78113,
    "departement": 78
  },
  {
    "nom": "HERBEVILLE",
    "code_postal": 78580,
    "departement": 78
  },
  {
    "nom": "HERMERAY",
    "code_postal": 78125,
    "departement": 78
  },
  {
    "nom": "HOUDAN",
    "code_postal": 78550,
    "departement": 78
  },
  {
    "nom": "HOUILLES",
    "code_postal": 78800,
    "departement": 78
  },
  {
    "nom": "ISSOU",
    "code_postal": 78440,
    "departement": 78
  },
  {
    "nom": "JAMBVILLE",
    "code_postal": 78440,
    "departement": 78
  },
  {
    "nom": "NOTRE DAME DE LA MER",
    "code_postal": 78270,
    "departement": 78
  },
  {
    "nom": "NOTRE DAME DE LA MER",
    "code_postal": 78270,
    "departement": 78
  },
  {
    "nom": "JOUARS PONTCHARTRAIN",
    "code_postal": 78760,
    "departement": 78
  },
  {
    "nom": "JOUY EN JOSAS",
    "code_postal": 78350,
    "departement": 78
  },
  {
    "nom": "JOUY MAUVOISIN",
    "code_postal": 78200,
    "departement": 78
  },
  {
    "nom": "JUMEAUVILLE",
    "code_postal": 78580,
    "departement": 78
  },
  {
    "nom": "JUZIERS",
    "code_postal": 78820,
    "departement": 78
  },
  {
    "nom": "LAINVILLE EN VEXIN",
    "code_postal": 78440,
    "departement": 78
  },
  {
    "nom": "LEVIS ST NOM",
    "code_postal": 78320,
    "departement": 78
  },
  {
    "nom": "LIMAY",
    "code_postal": 78520,
    "departement": 78
  },
  {
    "nom": "LIMETZ VILLEZ",
    "code_postal": 78270,
    "departement": 78
  },
  {
    "nom": "LES LOGES EN JOSAS",
    "code_postal": 78350,
    "departement": 78
  },
  {
    "nom": "LOMMOYE",
    "code_postal": 78270,
    "departement": 78
  },
  {
    "nom": "LONGNES",
    "code_postal": 78980,
    "departement": 78
  },
  {
    "nom": "LONGVILLIERS",
    "code_postal": 78730,
    "departement": 78
  },
  {
    "nom": "LOUVECIENNES",
    "code_postal": 78430,
    "departement": 78
  },
  {
    "nom": "MAGNANVILLE",
    "code_postal": 78200,
    "departement": 78
  },
  {
    "nom": "MAGNY LES HAMEAUX",
    "code_postal": 78114,
    "departement": 78
  },
  {
    "nom": "MAGNY LES HAMEAUX",
    "code_postal": 78114,
    "departement": 78
  },
  {
    "nom": "MAISONS LAFFITTE",
    "code_postal": 78600,
    "departement": 78
  },
  {
    "nom": "MANTES LA JOLIE",
    "code_postal": 78200,
    "departement": 78
  },
  {
    "nom": "MANTES LA VILLE",
    "code_postal": 78711,
    "departement": 78
  },
  {
    "nom": "MARCQ",
    "code_postal": 78770,
    "departement": 78
  },
  {
    "nom": "MAREIL LE GUYON",
    "code_postal": 78490,
    "departement": 78
  },
  {
    "nom": "MAREIL MARLY",
    "code_postal": 78750,
    "departement": 78
  },
  {
    "nom": "MAREIL SUR MAULDRE",
    "code_postal": 78124,
    "departement": 78
  },
  {
    "nom": "MARLY LE ROI",
    "code_postal": 78160,
    "departement": 78
  },
  {
    "nom": "MARLY LE ROI",
    "code_postal": 78160,
    "departement": 78
  },
  {
    "nom": "MAULE",
    "code_postal": 78580,
    "departement": 78
  },
  {
    "nom": "MAULETTE",
    "code_postal": 78550,
    "departement": 78
  },
  {
    "nom": "MAULETTE",
    "code_postal": 78550,
    "departement": 78
  },
  {
    "nom": "MAURECOURT",
    "code_postal": 78780,
    "departement": 78
  },
  {
    "nom": "MAUREPAS",
    "code_postal": 78310,
    "departement": 78
  },
  {
    "nom": "MEDAN",
    "code_postal": 78670,
    "departement": 78
  },
  {
    "nom": "MENERVILLE",
    "code_postal": 78200,
    "departement": 78
  },
  {
    "nom": "MERE",
    "code_postal": 78490,
    "departement": 78
  },
  {
    "nom": "MERICOURT",
    "code_postal": 78270,
    "departement": 78
  },
  {
    "nom": "LE MESNIL LE ROI",
    "code_postal": 78600,
    "departement": 78
  },
  {
    "nom": "LE MESNIL LE ROI",
    "code_postal": 78600,
    "departement": 78
  },
  {
    "nom": "LE MESNIL ST DENIS",
    "code_postal": 78320,
    "departement": 78
  },
  {
    "nom": "LES MESNULS",
    "code_postal": 78490,
    "departement": 78
  },
  {
    "nom": "MEULAN EN YVELINES",
    "code_postal": 78250,
    "departement": 78
  },
  {
    "nom": "MEZIERES SUR SEINE",
    "code_postal": 78970,
    "departement": 78
  },
  {
    "nom": "MEZY SUR SEINE",
    "code_postal": 78250,
    "departement": 78
  },
  {
    "nom": "MILLEMONT",
    "code_postal": 78940,
    "departement": 78
  },
  {
    "nom": "MILON LA CHAPELLE",
    "code_postal": 78470,
    "departement": 78
  },
  {
    "nom": "MITTAINVILLE",
    "code_postal": 78125,
    "departement": 78
  },
  {
    "nom": "MOISSON",
    "code_postal": 78840,
    "departement": 78
  },
  {
    "nom": "MONDREVILLE",
    "code_postal": 78980,
    "departement": 78
  },
  {
    "nom": "MONTAINVILLE",
    "code_postal": 78124,
    "departement": 78
  },
  {
    "nom": "MONTALET LE BOIS",
    "code_postal": 78440,
    "departement": 78
  },
  {
    "nom": "MONTCHAUVET",
    "code_postal": 78790,
    "departement": 78
  },
  {
    "nom": "MONTESSON",
    "code_postal": 78360,
    "departement": 78
  },
  {
    "nom": "MONTFORT L AMAURY",
    "code_postal": 78490,
    "departement": 78
  },
  {
    "nom": "MONTIGNY LE BRETONNEUX",
    "code_postal": 78180,
    "departement": 78
  },
  {
    "nom": "MORAINVILLIERS",
    "code_postal": 78630,
    "departement": 78
  },
  {
    "nom": "MOUSSEAUX SUR SEINE",
    "code_postal": 78270,
    "departement": 78
  },
  {
    "nom": "MULCENT",
    "code_postal": 78790,
    "departement": 78
  },
  {
    "nom": "LES MUREAUX",
    "code_postal": 78130,
    "departement": 78
  },
  {
    "nom": "NEAUPHLE LE CHATEAU",
    "code_postal": 78640,
    "departement": 78
  },
  {
    "nom": "NEAUPHLE LE VIEUX",
    "code_postal": 78640,
    "departement": 78
  },
  {
    "nom": "NEAUPHLETTE",
    "code_postal": 78980,
    "departement": 78
  },
  {
    "nom": "NEZEL",
    "code_postal": 78410,
    "departement": 78
  },
  {
    "nom": "NOISY LE ROI",
    "code_postal": 78590,
    "departement": 78
  },
  {
    "nom": "OINVILLE SUR MONTCIENT",
    "code_postal": 78250,
    "departement": 78
  },
  {
    "nom": "ORCEMONT",
    "code_postal": 78125,
    "departement": 78
  },
  {
    "nom": "ORGERUS",
    "code_postal": 78910,
    "departement": 78
  },
  {
    "nom": "ORGEVAL",
    "code_postal": 78630,
    "departement": 78
  },
  {
    "nom": "ORPHIN",
    "code_postal": 78125,
    "departement": 78
  },
  {
    "nom": "ORSONVILLE",
    "code_postal": 78660,
    "departement": 78
  },
  {
    "nom": "ORVILLIERS",
    "code_postal": 78910,
    "departement": 78
  },
  {
    "nom": "OSMOY",
    "code_postal": 78910,
    "departement": 78
  },
  {
    "nom": "PARAY DOUAVILLE",
    "code_postal": 78660,
    "departement": 78
  },
  {
    "nom": "LE PECQ",
    "code_postal": 78230,
    "departement": 78
  },
  {
    "nom": "PERDREAUVILLE",
    "code_postal": 78200,
    "departement": 78
  },
  {
    "nom": "LE PERRAY EN YVELINES",
    "code_postal": 78610,
    "departement": 78
  },
  {
    "nom": "PLAISIR",
    "code_postal": 78370,
    "departement": 78
  },
  {
    "nom": "POIGNY LA FORET",
    "code_postal": 78125,
    "departement": 78
  },
  {
    "nom": "POISSY",
    "code_postal": 78300,
    "departement": 78
  },
  {
    "nom": "POISSY",
    "code_postal": 78300,
    "departement": 78
  },
  {
    "nom": "PONTHEVRARD",
    "code_postal": 78730,
    "departement": 78
  },
  {
    "nom": "PORCHEVILLE",
    "code_postal": 78440,
    "departement": 78
  },
  {
    "nom": "LE PORT MARLY",
    "code_postal": 78560,
    "departement": 78
  },
  {
    "nom": "PRUNAY LE TEMPLE",
    "code_postal": 78910,
    "departement": 78
  },
  {
    "nom": "PRUNAY EN YVELINES",
    "code_postal": 78660,
    "departement": 78
  },
  {
    "nom": "PRUNAY EN YVELINES",
    "code_postal": 78660,
    "departement": 78
  },
  {
    "nom": "LA QUEUE LES YVELINES",
    "code_postal": 78940,
    "departement": 78
  },
  {
    "nom": "RAIZEUX",
    "code_postal": 78125,
    "departement": 78
  },
  {
    "nom": "RAMBOUILLET",
    "code_postal": 78120,
    "departement": 78
  },
  {
    "nom": "RENNEMOULIN",
    "code_postal": 78590,
    "departement": 78
  },
  {
    "nom": "RICHEBOURG",
    "code_postal": 78550,
    "departement": 78
  },
  {
    "nom": "ROCHEFORT EN YVELINES",
    "code_postal": 78730,
    "departement": 78
  },
  {
    "nom": "ROLLEBOISE",
    "code_postal": 78270,
    "departement": 78
  },
  {
    "nom": "ROSAY",
    "code_postal": 78790,
    "departement": 78
  },
  {
    "nom": "ROSNY SUR SEINE",
    "code_postal": 78710,
    "departement": 78
  },
  {
    "nom": "SAILLY",
    "code_postal": 78440,
    "departement": 78
  },
  {
    "nom": "ST ARNOULT EN YVELINES",
    "code_postal": 78730,
    "departement": 78
  },
  {
    "nom": "ST CYR L ECOLE",
    "code_postal": 78210,
    "departement": 78
  },
  {
    "nom": "ST FORGET",
    "code_postal": 78720,
    "departement": 78
  },
  {
    "nom": "ST GERMAIN DE LA GRANGE",
    "code_postal": 78640,
    "departement": 78
  },
  {
    "nom": "ST GERMAIN EN LAYE",
    "code_postal": 78100,
    "departement": 78
  },
  {
    "nom": "ST GERMAIN EN LAYE",
    "code_postal": 78112,
    "departement": 78
  },
  {
    "nom": "ST HILARION",
    "code_postal": 78125,
    "departement": 78
  },
  {
    "nom": "ST ILLIERS LA VILLE",
    "code_postal": 78980,
    "departement": 78
  },
  {
    "nom": "ST ILLIERS LE BOIS",
    "code_postal": 78980,
    "departement": 78
  },
  {
    "nom": "ST LAMBERT",
    "code_postal": 78470,
    "departement": 78
  },
  {
    "nom": "ST LEGER EN YVELINES",
    "code_postal": 78610,
    "departement": 78
  },
  {
    "nom": "ST MARTIN DE BRETHENCOURT",
    "code_postal": 78660,
    "departement": 78
  },
  {
    "nom": "ST MARTIN DES CHAMPS",
    "code_postal": 78790,
    "departement": 78
  },
  {
    "nom": "ST MARTIN LA GARENNE",
    "code_postal": 78520,
    "departement": 78
  },
  {
    "nom": "STE MESME",
    "code_postal": 78730,
    "departement": 78
  },
  {
    "nom": "ST NOM LA BRETECHE",
    "code_postal": 78860,
    "departement": 78
  },
  {
    "nom": "ST NOM LA BRETECHE",
    "code_postal": 78860,
    "departement": 78
  },
  {
    "nom": "ST REMY LES CHEVREUSE",
    "code_postal": 78470,
    "departement": 78
  },
  {
    "nom": "ST REMY LES CHEVREUSE",
    "code_postal": 78470,
    "departement": 78
  },
  {
    "nom": "ST REMY L HONORE",
    "code_postal": 78690,
    "departement": 78
  },
  {
    "nom": "SARTROUVILLE",
    "code_postal": 78500,
    "departement": 78
  },
  {
    "nom": "SAULX MARCHAIS",
    "code_postal": 78650,
    "departement": 78
  },
  {
    "nom": "SENLISSE",
    "code_postal": 78720,
    "departement": 78
  },
  {
    "nom": "SEPTEUIL",
    "code_postal": 78790,
    "departement": 78
  },
  {
    "nom": "SOINDRES",
    "code_postal": 78200,
    "departement": 78
  },
  {
    "nom": "SONCHAMP",
    "code_postal": 78120,
    "departement": 78
  },
  {
    "nom": "TACOIGNIERES",
    "code_postal": 78910,
    "departement": 78
  },
  {
    "nom": "LE TARTRE GAUDRAN",
    "code_postal": 78113,
    "departement": 78
  },
  {
    "nom": "LE TERTRE ST DENIS",
    "code_postal": 78980,
    "departement": 78
  },
  {
    "nom": "TESSANCOURT SUR AUBETTE",
    "code_postal": 78250,
    "departement": 78
  },
  {
    "nom": "THIVERVAL GRIGNON",
    "code_postal": 78850,
    "departement": 78
  },
  {
    "nom": "THOIRY",
    "code_postal": 78770,
    "departement": 78
  },
  {
    "nom": "TILLY",
    "code_postal": 78790,
    "departement": 78
  },
  {
    "nom": "TOUSSUS LE NOBLE",
    "code_postal": 78117,
    "departement": 78
  },
  {
    "nom": "TRAPPES",
    "code_postal": 78190,
    "departement": 78
  },
  {
    "nom": "LE TREMBLAY SUR MAULDRE",
    "code_postal": 78490,
    "departement": 78
  },
  {
    "nom": "TRIEL SUR SEINE",
    "code_postal": 78510,
    "departement": 78
  },
  {
    "nom": "TRIEL SUR SEINE",
    "code_postal": 78510,
    "departement": 78
  },
  {
    "nom": "TRIEL SUR SEINE",
    "code_postal": 78510,
    "departement": 78
  },
  {
    "nom": "VAUX SUR SEINE",
    "code_postal": 78740,
    "departement": 78
  },
  {
    "nom": "VELIZY VILLACOUBLAY",
    "code_postal": 78140,
    "departement": 78
  },
  {
    "nom": "VERNEUIL SUR SEINE",
    "code_postal": 78480,
    "departement": 78
  },
  {
    "nom": "VERNOUILLET",
    "code_postal": 78540,
    "departement": 78
  },
  {
    "nom": "VERNOUILLET",
    "code_postal": 78540,
    "departement": 78
  },
  {
    "nom": "LA VERRIERE",
    "code_postal": 78320,
    "departement": 78
  },
  {
    "nom": "VERSAILLES",
    "code_postal": 78000,
    "departement": 78
  },
  {
    "nom": "VERT",
    "code_postal": 78930,
    "departement": 78
  },
  {
    "nom": "LE VESINET",
    "code_postal": 78110,
    "departement": 78
  },
  {
    "nom": "VICQ",
    "code_postal": 78490,
    "departement": 78
  },
  {
    "nom": "VIEILLE EGLISE EN YVELINES",
    "code_postal": 78125,
    "departement": 78
  },
  {
    "nom": "LA VILLENEUVE EN CHEVRIE",
    "code_postal": 78270,
    "departement": 78
  },
  {
    "nom": "VILLENNES SUR SEINE",
    "code_postal": 78670,
    "departement": 78
  },
  {
    "nom": "VILLEPREUX",
    "code_postal": 78450,
    "departement": 78
  },
  {
    "nom": "VILLETTE",
    "code_postal": 78930,
    "departement": 78
  },
  {
    "nom": "VILLIERS LE MAHIEU",
    "code_postal": 78770,
    "departement": 78
  },
  {
    "nom": "VILLIERS ST FREDERIC",
    "code_postal": 78640,
    "departement": 78
  },
  {
    "nom": "VIROFLAY",
    "code_postal": 78220,
    "departement": 78
  },
  {
    "nom": "VOISINS LE BRETONNEUX",
    "code_postal": 78960,
    "departement": 78
  },
  {
    "nom": "ABBEVILLE LA RIVIERE",
    "code_postal": 91150,
    "departement": 91
  },
  {
    "nom": "ANGERVILLE",
    "code_postal": 91670,
    "departement": 91
  },
  {
    "nom": "ANGERVILLE",
    "code_postal": 91670,
    "departement": 91
  },
  {
    "nom": "ANGERVILLIERS",
    "code_postal": 91470,
    "departement": 91
  },
  {
    "nom": "ARPAJON",
    "code_postal": 91290,
    "departement": 91
  },
  {
    "nom": "ARRANCOURT",
    "code_postal": 91690,
    "departement": 91
  },
  {
    "nom": "ATHIS MONS",
    "code_postal": 91200,
    "departement": 91
  },
  {
    "nom": "AUTHON LA PLAINE",
    "code_postal": 91410,
    "departement": 91
  },
  {
    "nom": "AUVERNAUX",
    "code_postal": 91830,
    "departement": 91
  },
  {
    "nom": "AUVERS ST GEORGES",
    "code_postal": 91580,
    "departement": 91
  },
  {
    "nom": "AVRAINVILLE",
    "code_postal": 91630,
    "departement": 91
  },
  {
    "nom": "BALLAINVILLIERS",
    "code_postal": 91160,
    "departement": 91
  },
  {
    "nom": "BALLANCOURT SUR ESSONNE",
    "code_postal": 91610,
    "departement": 91
  },
  {
    "nom": "BAULNE",
    "code_postal": 91590,
    "departement": 91
  },
  {
    "nom": "BIEVRES",
    "code_postal": 91570,
    "departement": 91
  },
  {
    "nom": "BLANDY",
    "code_postal": 91150,
    "departement": 91
  },
  {
    "nom": "BOIGNEVILLE",
    "code_postal": 91720,
    "departement": 91
  },
  {
    "nom": "BOIS HERPIN",
    "code_postal": 91150,
    "departement": 91
  },
  {
    "nom": "BOISSY LA RIVIERE",
    "code_postal": 91690,
    "departement": 91
  },
  {
    "nom": "BOISSY LE CUTTE",
    "code_postal": 91590,
    "departement": 91
  },
  {
    "nom": "BOISSY LE SEC",
    "code_postal": 91870,
    "departement": 91
  },
  {
    "nom": "BOISSY SOUS ST YON",
    "code_postal": 91790,
    "departement": 91
  },
  {
    "nom": "BONDOUFLE",
    "code_postal": 91070,
    "departement": 91
  },
  {
    "nom": "BOULLAY LES TROUX",
    "code_postal": 91470,
    "departement": 91
  },
  {
    "nom": "BOURAY SUR JUINE",
    "code_postal": 91850,
    "departement": 91
  },
  {
    "nom": "BOUSSY ST ANTOINE",
    "code_postal": 91800,
    "departement": 91
  },
  {
    "nom": "BOUTERVILLIERS",
    "code_postal": 91150,
    "departement": 91
  },
  {
    "nom": "BOUTIGNY SUR ESSONNE",
    "code_postal": 91820,
    "departement": 91
  },
  {
    "nom": "BOUVILLE",
    "code_postal": 91880,
    "departement": 91
  },
  {
    "nom": "BRETIGNY SUR ORGE",
    "code_postal": 91220,
    "departement": 91
  },
  {
    "nom": "BREUILLET",
    "code_postal": 91650,
    "departement": 91
  },
  {
    "nom": "BREUX JOUY",
    "code_postal": 91650,
    "departement": 91
  },
  {
    "nom": "BRIERES LES SCELLES",
    "code_postal": 91150,
    "departement": 91
  },
  {
    "nom": "BRIIS SOUS FORGES",
    "code_postal": 91640,
    "departement": 91
  },
  {
    "nom": "BROUY",
    "code_postal": 91150,
    "departement": 91
  },
  {
    "nom": "BRUNOY",
    "code_postal": 91800,
    "departement": 91
  },
  {
    "nom": "BRUYERES LE CHATEL",
    "code_postal": 91680,
    "departement": 91
  },
  {
    "nom": "BUNO BONNEVAUX",
    "code_postal": 91720,
    "departement": 91
  },
  {
    "nom": "BURES SUR YVETTE",
    "code_postal": 91440,
    "departement": 91
  },
  {
    "nom": "BURES SUR YVETTE",
    "code_postal": 91440,
    "departement": 91
  },
  {
    "nom": "CERNY",
    "code_postal": 91590,
    "departement": 91
  },
  {
    "nom": "CHALO ST MARS",
    "code_postal": 91780,
    "departement": 91
  },
  {
    "nom": "CHALOU MOULINEUX",
    "code_postal": 91740,
    "departement": 91
  },
  {
    "nom": "CHAMARANDE",
    "code_postal": 91730,
    "departement": 91
  },
  {
    "nom": "CHAMPCUEIL",
    "code_postal": 91750,
    "departement": 91
  },
  {
    "nom": "CHAMPLAN",
    "code_postal": 91160,
    "departement": 91
  },
  {
    "nom": "CHAMPMOTTEUX",
    "code_postal": 91150,
    "departement": 91
  },
  {
    "nom": "CHATIGNONVILLE",
    "code_postal": 91410,
    "departement": 91
  },
  {
    "nom": "CHAUFFOUR LES ETRECHY",
    "code_postal": 91580,
    "departement": 91
  },
  {
    "nom": "CHEPTAINVILLE",
    "code_postal": 91630,
    "departement": 91
  },
  {
    "nom": "CHEVANNES",
    "code_postal": 91750,
    "departement": 91
  },
  {
    "nom": "CHILLY MAZARIN",
    "code_postal": 91380,
    "departement": 91
  },
  {
    "nom": "CORBEIL ESSONNES",
    "code_postal": 91100,
    "departement": 91
  },
  {
    "nom": "CORBREUSE",
    "code_postal": 91410,
    "departement": 91
  },
  {
    "nom": "LE COUDRAY MONTCEAUX",
    "code_postal": 91830,
    "departement": 91
  },
  {
    "nom": "LE COUDRAY MONTCEAUX",
    "code_postal": 91830,
    "departement": 91
  },
  {
    "nom": "COURANCES",
    "code_postal": 91490,
    "departement": 91
  },
  {
    "nom": "COURDIMANCHE SUR ESSONNE",
    "code_postal": 91720,
    "departement": 91
  },
  {
    "nom": "COURSON MONTELOUP",
    "code_postal": 91680,
    "departement": 91
  },
  {
    "nom": "CROSNE",
    "code_postal": 91560,
    "departement": 91
  },
  {
    "nom": "DANNEMOIS",
    "code_postal": 91490,
    "departement": 91
  },
  {
    "nom": "D HUISON LONGUEVILLE",
    "code_postal": 91590,
    "departement": 91
  },
  {
    "nom": "DOURDAN",
    "code_postal": 91410,
    "departement": 91
  },
  {
    "nom": "DRAVEIL",
    "code_postal": 91210,
    "departement": 91
  },
  {
    "nom": "DRAVEIL",
    "code_postal": 91210,
    "departement": 91
  },
  {
    "nom": "ECHARCON",
    "code_postal": 91540,
    "departement": 91
  },
  {
    "nom": "EGLY",
    "code_postal": 91520,
    "departement": 91
  },
  {
    "nom": "EPINAY SOUS SENART",
    "code_postal": 91860,
    "departement": 91
  },
  {
    "nom": "EPINAY SUR ORGE",
    "code_postal": 91360,
    "departement": 91
  },
  {
    "nom": "ETAMPES",
    "code_postal": 91150,
    "departement": 91
  },
  {
    "nom": "ETIOLLES",
    "code_postal": 91450,
    "departement": 91
  },
  {
    "nom": "ETRECHY",
    "code_postal": 91580,
    "departement": 91
  },
  {
    "nom": "EVRY COURCOURONNES",
    "code_postal": 91000,
    "departement": 91
  },
  {
    "nom": "EVRY COURCOURONNES",
    "code_postal": 91080,
    "departement": 91
  },
  {
    "nom": "LA FERTE ALAIS",
    "code_postal": 91590,
    "departement": 91
  },
  {
    "nom": "FLEURY MEROGIS",
    "code_postal": 91700,
    "departement": 91
  },
  {
    "nom": "FONTAINE LA RIVIERE",
    "code_postal": 91690,
    "departement": 91
  },
  {
    "nom": "FONTENAY LES BRIIS",
    "code_postal": 91640,
    "departement": 91
  },
  {
    "nom": "FONTENAY LE VICOMTE",
    "code_postal": 91540,
    "departement": 91
  },
  {
    "nom": "LA FORET LE ROI",
    "code_postal": 91410,
    "departement": 91
  },
  {
    "nom": "LA FORET STE CROIX",
    "code_postal": 91150,
    "departement": 91
  },
  {
    "nom": "FORGES LES BAINS",
    "code_postal": 91470,
    "departement": 91
  },
  {
    "nom": "GIF SUR YVETTE",
    "code_postal": 91190,
    "departement": 91
  },
  {
    "nom": "GIRONVILLE SUR ESSONNE",
    "code_postal": 91720,
    "departement": 91
  },
  {
    "nom": "GOMETZ LA VILLE",
    "code_postal": 91400,
    "departement": 91
  },
  {
    "nom": "GOMETZ LE CHATEL",
    "code_postal": 91940,
    "departement": 91
  },
  {
    "nom": "LES GRANGES LE ROI",
    "code_postal": 91410,
    "departement": 91
  },
  {
    "nom": "GRIGNY",
    "code_postal": 91350,
    "departement": 91
  },
  {
    "nom": "GUIBEVILLE",
    "code_postal": 91630,
    "departement": 91
  },
  {
    "nom": "GUIGNEVILLE SUR ESSONNE",
    "code_postal": 91590,
    "departement": 91
  },
  {
    "nom": "GUILLERVAL",
    "code_postal": 91690,
    "departement": 91
  },
  {
    "nom": "IGNY",
    "code_postal": 91430,
    "departement": 91
  },
  {
    "nom": "IGNY",
    "code_postal": 91430,
    "departement": 91
  },
  {
    "nom": "ITTEVILLE",
    "code_postal": 91760,
    "departement": 91
  },
  {
    "nom": "JANVILLE SUR JUINE",
    "code_postal": 91510,
    "departement": 91
  },
  {
    "nom": "JANVRY",
    "code_postal": 91640,
    "departement": 91
  },
  {
    "nom": "JUVISY SUR ORGE",
    "code_postal": 91260,
    "departement": 91
  },
  {
    "nom": "LARDY",
    "code_postal": 91510,
    "departement": 91
  },
  {
    "nom": "LEUDEVILLE",
    "code_postal": 91630,
    "departement": 91
  },
  {
    "nom": "LEUVILLE SUR ORGE",
    "code_postal": 91310,
    "departement": 91
  },
  {
    "nom": "LIMOURS",
    "code_postal": 91470,
    "departement": 91
  },
  {
    "nom": "LINAS",
    "code_postal": 91310,
    "departement": 91
  },
  {
    "nom": "LISSES",
    "code_postal": 91090,
    "departement": 91
  },
  {
    "nom": "LONGJUMEAU",
    "code_postal": 91160,
    "departement": 91
  },
  {
    "nom": "LONGJUMEAU",
    "code_postal": 91160,
    "departement": 91
  },
  {
    "nom": "LONGPONT SUR ORGE",
    "code_postal": 91310,
    "departement": 91
  },
  {
    "nom": "MAISSE",
    "code_postal": 91720,
    "departement": 91
  },
  {
    "nom": "MARCOUSSIS",
    "code_postal": 91460,
    "departement": 91
  },
  {
    "nom": "MAROLLES EN BEAUCE",
    "code_postal": 91150,
    "departement": 91
  },
  {
    "nom": "MAROLLES EN HUREPOIX",
    "code_postal": 91630,
    "departement": 91
  },
  {
    "nom": "MASSY",
    "code_postal": 91300,
    "departement": 91
  },
  {
    "nom": "MAUCHAMPS",
    "code_postal": 91730,
    "departement": 91
  },
  {
    "nom": "MENNECY",
    "code_postal": 91540,
    "departement": 91
  },
  {
    "nom": "LE MEREVILLOIS",
    "code_postal": 91660,
    "departement": 91
  },
  {
    "nom": "LE MEREVILLOIS",
    "code_postal": 91660,
    "departement": 91
  },
  {
    "nom": "MEROBERT",
    "code_postal": 91780,
    "departement": 91
  },
  {
    "nom": "MESPUITS",
    "code_postal": 91150,
    "departement": 91
  },
  {
    "nom": "MILLY LA FORET",
    "code_postal": 91490,
    "departement": 91
  },
  {
    "nom": "MOIGNY SUR ECOLE",
    "code_postal": 91490,
    "departement": 91
  },
  {
    "nom": "LES MOLIERES",
    "code_postal": 91470,
    "departement": 91
  },
  {
    "nom": "MONDEVILLE",
    "code_postal": 91590,
    "departement": 91
  },
  {
    "nom": "MONNERVILLE",
    "code_postal": 91930,
    "departement": 91
  },
  {
    "nom": "MONTGERON",
    "code_postal": 91230,
    "departement": 91
  },
  {
    "nom": "MONTLHERY",
    "code_postal": 91310,
    "departement": 91
  },
  {
    "nom": "MORANGIS",
    "code_postal": 91420,
    "departement": 91
  },
  {
    "nom": "MORIGNY CHAMPIGNY",
    "code_postal": 91150,
    "departement": 91
  },
  {
    "nom": "MORSANG SUR ORGE",
    "code_postal": 91390,
    "departement": 91
  },
  {
    "nom": "MORSANG SUR SEINE",
    "code_postal": 91250,
    "departement": 91
  },
  {
    "nom": "NAINVILLE LES ROCHES",
    "code_postal": 91750,
    "departement": 91
  },
  {
    "nom": "LA NORVILLE",
    "code_postal": 91290,
    "departement": 91
  },
  {
    "nom": "NOZAY",
    "code_postal": 91620,
    "departement": 91
  },
  {
    "nom": "OLLAINVILLE",
    "code_postal": 91340,
    "departement": 91
  },
  {
    "nom": "ONCY SUR ECOLE",
    "code_postal": 91490,
    "departement": 91
  },
  {
    "nom": "ORMOY",
    "code_postal": 91540,
    "departement": 91
  },
  {
    "nom": "ORMOY LA RIVIERE",
    "code_postal": 91150,
    "departement": 91
  },
  {
    "nom": "ORSAY",
    "code_postal": 91400,
    "departement": 91
  },
  {
    "nom": "ORSAY",
    "code_postal": 91400,
    "departement": 91
  },
  {
    "nom": "ORVEAU",
    "code_postal": 91590,
    "departement": 91
  },
  {
    "nom": "PALAISEAU",
    "code_postal": 91120,
    "departement": 91
  },
  {
    "nom": "PARAY VIEILLE POSTE",
    "code_postal": 91550,
    "departement": 91
  },
  {
    "nom": "PARAY VIEILLE POSTE",
    "code_postal": 94390,
    "departement": 91
  },
  {
    "nom": "PECQUEUSE",
    "code_postal": 91470,
    "departement": 91
  },
  {
    "nom": "LE PLESSIS PATE",
    "code_postal": 91220,
    "departement": 91
  },
  {
    "nom": "PLESSIS ST BENOIST",
    "code_postal": 91410,
    "departement": 91
  },
  {
    "nom": "PRUNAY SUR ESSONNE",
    "code_postal": 91720,
    "departement": 91
  },
  {
    "nom": "PUISELET LE MARAIS",
    "code_postal": 91150,
    "departement": 91
  },
  {
    "nom": "PUSSAY",
    "code_postal": 91740,
    "departement": 91
  },
  {
    "nom": "QUINCY SOUS SENART",
    "code_postal": 91480,
    "departement": 91
  },
  {
    "nom": "RICHARVILLE",
    "code_postal": 91410,
    "departement": 91
  },
  {
    "nom": "RIS ORANGIS",
    "code_postal": 91130,
    "departement": 91
  },
  {
    "nom": "ROINVILLE",
    "code_postal": 91410,
    "departement": 91
  },
  {
    "nom": "ROINVILLIERS",
    "code_postal": 91150,
    "departement": 91
  },
  {
    "nom": "SACLAS",
    "code_postal": 91690,
    "departement": 91
  },
  {
    "nom": "SACLAY",
    "code_postal": 91400,
    "departement": 91
  },
  {
    "nom": "SACLAY",
    "code_postal": 91400,
    "departement": 91
  },
  {
    "nom": "ST AUBIN",
    "code_postal": 91190,
    "departement": 91
  },
  {
    "nom": "ST AUBIN",
    "code_postal": 91190,
    "departement": 91
  },
  {
    "nom": "ST CHERON",
    "code_postal": 91530,
    "departement": 91
  },
  {
    "nom": "ST CYR LA RIVIERE",
    "code_postal": 91690,
    "departement": 91
  },
  {
    "nom": "ST CYR SOUS DOURDAN",
    "code_postal": 91410,
    "departement": 91
  },
  {
    "nom": "ST ESCOBILLE",
    "code_postal": 91410,
    "departement": 91
  },
  {
    "nom": "STE GENEVIEVE DES BOIS",
    "code_postal": 91700,
    "departement": 91
  },
  {
    "nom": "ST GERMAIN LES ARPAJON",
    "code_postal": 91180,
    "departement": 91
  },
  {
    "nom": "ST GERMAIN LES CORBEIL",
    "code_postal": 91250,
    "departement": 91
  },
  {
    "nom": "ST HILAIRE",
    "code_postal": 91780,
    "departement": 91
  },
  {
    "nom": "ST JEAN DE BEAUREGARD",
    "code_postal": 91940,
    "departement": 91
  },
  {
    "nom": "ST JEAN DE BEAUREGARD",
    "code_postal": 91940,
    "departement": 91
  },
  {
    "nom": "ST MAURICE MONTCOURONNE",
    "code_postal": 91530,
    "departement": 91
  },
  {
    "nom": "ST MICHEL SUR ORGE",
    "code_postal": 91240,
    "departement": 91
  },
  {
    "nom": "ST PIERRE DU PERRAY",
    "code_postal": 91280,
    "departement": 91
  },
  {
    "nom": "SAINTRY SUR SEINE",
    "code_postal": 91250,
    "departement": 91
  },
  {
    "nom": "ST SULPICE DE FAVIERES",
    "code_postal": 91910,
    "departement": 91
  },
  {
    "nom": "ST VRAIN",
    "code_postal": 91770,
    "departement": 91
  },
  {
    "nom": "ST YON",
    "code_postal": 91650,
    "departement": 91
  },
  {
    "nom": "SAULX LES CHARTREUX",
    "code_postal": 91160,
    "departement": 91
  },
  {
    "nom": "SAVIGNY SUR ORGE",
    "code_postal": 91600,
    "departement": 91
  },
  {
    "nom": "SERMAISE",
    "code_postal": 91530,
    "departement": 91
  },
  {
    "nom": "SOISY SUR ECOLE",
    "code_postal": 91840,
    "departement": 91
  },
  {
    "nom": "SOISY SUR SEINE",
    "code_postal": 91450,
    "departement": 91
  },
  {
    "nom": "SOUZY LA BRICHE",
    "code_postal": 91580,
    "departement": 91
  },
  {
    "nom": "CONGERVILLE THIONVILLE",
    "code_postal": 91740,
    "departement": 91
  },
  {
    "nom": "CONGERVILLE THIONVILLE",
    "code_postal": 91740,
    "departement": 91
  },
  {
    "nom": "TIGERY",
    "code_postal": 91250,
    "departement": 91
  },
  {
    "nom": "TORFOU",
    "code_postal": 91730,
    "departement": 91
  },
  {
    "nom": "VALPUISEAUX",
    "code_postal": 91720,
    "departement": 91
  },
  {
    "nom": "LE VAL ST GERMAIN",
    "code_postal": 91530,
    "departement": 91
  },
  {
    "nom": "VARENNES JARCY",
    "code_postal": 91480,
    "departement": 91
  },
  {
    "nom": "VAUGRIGNEUSE",
    "code_postal": 91640,
    "departement": 91
  },
  {
    "nom": "VAUHALLAN",
    "code_postal": 91430,
    "departement": 91
  },
  {
    "nom": "VAYRES SUR ESSONNE",
    "code_postal": 91820,
    "departement": 91
  },
  {
    "nom": "VERRIERES LE BUISSON",
    "code_postal": 91370,
    "departement": 91
  },
  {
    "nom": "VERT LE GRAND",
    "code_postal": 91810,
    "departement": 91
  },
  {
    "nom": "VERT LE PETIT",
    "code_postal": 91710,
    "departement": 91
  },
  {
    "nom": "VIDELLES",
    "code_postal": 91890,
    "departement": 91
  },
  {
    "nom": "VIGNEUX SUR SEINE",
    "code_postal": 91270,
    "departement": 91
  },
  {
    "nom": "VILLABE",
    "code_postal": 91100,
    "departement": 91
  },
  {
    "nom": "VILLEBON SUR YVETTE",
    "code_postal": 91140,
    "departement": 91
  },
  {
    "nom": "VILLECONIN",
    "code_postal": 91580,
    "departement": 91
  },
  {
    "nom": "LA VILLE DU BOIS",
    "code_postal": 91620,
    "departement": 91
  },
  {
    "nom": "VILLEJUST",
    "code_postal": 91140,
    "departement": 91
  },
  {
    "nom": "VILLEMOISSON SUR ORGE",
    "code_postal": 91360,
    "departement": 91
  },
  {
    "nom": "VILLENEUVE SUR AUVERS",
    "code_postal": 91580,
    "departement": 91
  },
  {
    "nom": "VILLIERS LE BACLE",
    "code_postal": 91190,
    "departement": 91
  },
  {
    "nom": "VILLIERS SUR ORGE",
    "code_postal": 91700,
    "departement": 91
  },
  {
    "nom": "VIRY CHATILLON",
    "code_postal": 91170,
    "departement": 91
  },
  {
    "nom": "WISSOUS",
    "code_postal": 91320,
    "departement": 91
  },
  {
    "nom": "YERRES",
    "code_postal": 91330,
    "departement": 91
  },
  {
    "nom": "LES ULIS",
    "code_postal": 91940,
    "departement": 91
  },
  {
    "nom": "ANTONY",
    "code_postal": 92160,
    "departement": 92
  },
  {
    "nom": "ASNIERES SUR SEINE",
    "code_postal": 92600,
    "departement": 92
  },
  {
    "nom": "BAGNEUX",
    "code_postal": 92220,
    "departement": 92
  },
  {
    "nom": "BOIS COLOMBES",
    "code_postal": 92270,
    "departement": 92
  },
  {
    "nom": "BOULOGNE BILLANCOURT",
    "code_postal": 92100,
    "departement": 92
  },
  {
    "nom": "BOURG LA REINE",
    "code_postal": 92340,
    "departement": 92
  },
  {
    "nom": "CHATENAY MALABRY",
    "code_postal": 92290,
    "departement": 92
  },
  {
    "nom": "CHATILLON",
    "code_postal": 92320,
    "departement": 92
  },
  {
    "nom": "CHAVILLE",
    "code_postal": 92370,
    "departement": 92
  },
  {
    "nom": "CLAMART",
    "code_postal": 92140,
    "departement": 92
  },
  {
    "nom": "CLAMART",
    "code_postal": 92140,
    "departement": 92
  },
  {
    "nom": "CLICHY",
    "code_postal": 92110,
    "departement": 92
  },
  {
    "nom": "COLOMBES",
    "code_postal": 92700,
    "departement": 92
  },
  {
    "nom": "COURBEVOIE",
    "code_postal": 92400,
    "departement": 92
  },
  {
    "nom": "FONTENAY AUX ROSES",
    "code_postal": 92260,
    "departement": 92
  },
  {
    "nom": "GARCHES",
    "code_postal": 92380,
    "departement": 92
  },
  {
    "nom": "LA GARENNE COLOMBES",
    "code_postal": 92250,
    "departement": 92
  },
  {
    "nom": "GENNEVILLIERS",
    "code_postal": 92230,
    "departement": 92
  },
  {
    "nom": "ISSY LES MOULINEAUX",
    "code_postal": 92130,
    "departement": 92
  },
  {
    "nom": "LEVALLOIS PERRET",
    "code_postal": 92300,
    "departement": 92
  },
  {
    "nom": "MALAKOFF",
    "code_postal": 92240,
    "departement": 92
  },
  {
    "nom": "MARNES LA COQUETTE",
    "code_postal": 92430,
    "departement": 92
  },
  {
    "nom": "MEUDON",
    "code_postal": 92190,
    "departement": 92
  },
  {
    "nom": "MEUDON",
    "code_postal": 92360,
    "departement": 92
  },
  {
    "nom": "MONTROUGE",
    "code_postal": 92120,
    "departement": 92
  },
  {
    "nom": "NANTERRE",
    "code_postal": 92000,
    "departement": 92
  },
  {
    "nom": "NEUILLY SUR SEINE",
    "code_postal": 92200,
    "departement": 92
  },
  {
    "nom": "LE PLESSIS ROBINSON",
    "code_postal": 92350,
    "departement": 92
  },
  {
    "nom": "LE PLESSIS ROBINSON",
    "code_postal": 92350,
    "departement": 92
  },
  {
    "nom": "PUTEAUX",
    "code_postal": 92800,
    "departement": 92
  },
  {
    "nom": "RUEIL MALMAISON",
    "code_postal": 92500,
    "departement": 92
  },
  {
    "nom": "RUEIL MALMAISON",
    "code_postal": 92500,
    "departement": 92
  },
  {
    "nom": "ST CLOUD",
    "code_postal": 92210,
    "departement": 92
  },
  {
    "nom": "SCEAUX",
    "code_postal": 92330,
    "departement": 92
  },
  {
    "nom": "SEVRES",
    "code_postal": 92310,
    "departement": 92
  },
  {
    "nom": "SURESNES",
    "code_postal": 92150,
    "departement": 92
  },
  {
    "nom": "VANVES",
    "code_postal": 92170,
    "departement": 92
  },
  {
    "nom": "VAUCRESSON",
    "code_postal": 92420,
    "departement": 92
  },
  {
    "nom": "VILLE D AVRAY",
    "code_postal": 92410,
    "departement": 92
  },
  {
    "nom": "VILLENEUVE LA GARENNE",
    "code_postal": 92390,
    "departement": 92
  },
  {
    "nom": "AUBERVILLIERS",
    "code_postal": 93300,
    "departement": 93
  },
  {
    "nom": "AULNAY SOUS BOIS",
    "code_postal": 93600,
    "departement": 93
  },
  {
    "nom": "BAGNOLET",
    "code_postal": 93170,
    "departement": 93
  },
  {
    "nom": "LE BLANC MESNIL",
    "code_postal": 93150,
    "departement": 93
  },
  {
    "nom": "BOBIGNY",
    "code_postal": 93000,
    "departement": 93
  },
  {
    "nom": "BONDY",
    "code_postal": 93140,
    "departement": 93
  },
  {
    "nom": "LE BOURGET",
    "code_postal": 93350,
    "departement": 93
  },
  {
    "nom": "CLICHY SOUS BOIS",
    "code_postal": 93390,
    "departement": 93
  },
  {
    "nom": "COUBRON",
    "code_postal": 93470,
    "departement": 93
  },
  {
    "nom": "LA COURNEUVE",
    "code_postal": 93120,
    "departement": 93
  },
  {
    "nom": "DRANCY",
    "code_postal": 93700,
    "departement": 93
  },
  {
    "nom": "DUGNY",
    "code_postal": 93440,
    "departement": 93
  },
  {
    "nom": "EPINAY SUR SEINE",
    "code_postal": 93800,
    "departement": 93
  },
  {
    "nom": "GAGNY",
    "code_postal": 93220,
    "departement": 93
  },
  {
    "nom": "GOURNAY SUR MARNE",
    "code_postal": 93460,
    "departement": 93
  },
  {
    "nom": "L ILE ST DENIS",
    "code_postal": 93450,
    "departement": 93
  },
  {
    "nom": "LES LILAS",
    "code_postal": 93260,
    "departement": 93
  },
  {
    "nom": "LIVRY GARGAN",
    "code_postal": 93190,
    "departement": 93
  },
  {
    "nom": "MONTFERMEIL",
    "code_postal": 93370,
    "departement": 93
  },
  {
    "nom": "MONTREUIL",
    "code_postal": 93100,
    "departement": 93
  },
  {
    "nom": "NEUILLY PLAISANCE",
    "code_postal": 93360,
    "departement": 93
  },
  {
    "nom": "NEUILLY SUR MARNE",
    "code_postal": 93330,
    "departement": 93
  },
  {
    "nom": "NOISY LE GRAND",
    "code_postal": 93160,
    "departement": 93
  },
  {
    "nom": "NOISY LE SEC",
    "code_postal": 93130,
    "departement": 93
  },
  {
    "nom": "PANTIN",
    "code_postal": 93500,
    "departement": 93
  },
  {
    "nom": "LES PAVILLONS SOUS BOIS",
    "code_postal": 93320,
    "departement": 93
  },
  {
    "nom": "LE PRE ST GERVAIS",
    "code_postal": 93310,
    "departement": 93
  },
  {
    "nom": "LE RAINCY",
    "code_postal": 93340,
    "departement": 93
  },
  {
    "nom": "ROMAINVILLE",
    "code_postal": 93230,
    "departement": 93
  },
  {
    "nom": "ROSNY SOUS BOIS",
    "code_postal": 93110,
    "departement": 93
  },
  {
    "nom": "ST DENIS",
    "code_postal": 93200,
    "departement": 93
  },
  {
    "nom": "ST DENIS",
    "code_postal": 93210,
    "departement": 93
  },
  {
    "nom": "ST DENIS",
    "code_postal": 93380,
    "departement": 93
  },
  {
    "nom": "ST OUEN SUR SEINE",
    "code_postal": 93400,
    "departement": 93
  },
  {
    "nom": "SEVRAN",
    "code_postal": 93270,
    "departement": 93
  },
  {
    "nom": "STAINS",
    "code_postal": 93240,
    "departement": 93
  },
  {
    "nom": "TREMBLAY EN FRANCE",
    "code_postal": 93290,
    "departement": 93
  },
  {
    "nom": "VAUJOURS",
    "code_postal": 93410,
    "departement": 93
  },
  {
    "nom": "VILLEMOMBLE",
    "code_postal": 93250,
    "departement": 93
  },
  {
    "nom": "VILLEPINTE",
    "code_postal": 93420,
    "departement": 93
  },
  {
    "nom": "VILLETANEUSE",
    "code_postal": 93430,
    "departement": 93
  },
  {
    "nom": "ABLON SUR SEINE",
    "code_postal": 94480,
    "departement": 94
  },
  {
    "nom": "ALFORTVILLE",
    "code_postal": 94140,
    "departement": 94
  },
  {
    "nom": "ARCUEIL",
    "code_postal": 94110,
    "departement": 94
  },
  {
    "nom": "BOISSY ST LEGER",
    "code_postal": 94470,
    "departement": 94
  },
  {
    "nom": "BONNEUIL SUR MARNE",
    "code_postal": 94380,
    "departement": 94
  },
  {
    "nom": "BRY SUR MARNE",
    "code_postal": 94360,
    "departement": 94
  },
  {
    "nom": "CACHAN",
    "code_postal": 94230,
    "departement": 94
  },
  {
    "nom": "CHAMPIGNY SUR MARNE",
    "code_postal": 94500,
    "departement": 94
  },
  {
    "nom": "CHAMPIGNY SUR MARNE",
    "code_postal": 94500,
    "departement": 94
  },
  {
    "nom": "CHARENTON LE PONT",
    "code_postal": 94220,
    "departement": 94
  },
  {
    "nom": "CHENNEVIERES SUR MARNE",
    "code_postal": 94430,
    "departement": 94
  },
  {
    "nom": "CHEVILLY LARUE",
    "code_postal": 94550,
    "departement": 94
  },
  {
    "nom": "CHOISY LE ROI",
    "code_postal": 94600,
    "departement": 94
  },
  {
    "nom": "CRETEIL",
    "code_postal": 94000,
    "departement": 94
  },
  {
    "nom": "FONTENAY SOUS BOIS",
    "code_postal": 94120,
    "departement": 94
  },
  {
    "nom": "FRESNES",
    "code_postal": 94260,
    "departement": 94
  },
  {
    "nom": "GENTILLY",
    "code_postal": 94250,
    "departement": 94
  },
  {
    "nom": "L HAY LES ROSES",
    "code_postal": 94240,
    "departement": 94
  },
  {
    "nom": "IVRY SUR SEINE",
    "code_postal": 94200,
    "departement": 94
  },
  {
    "nom": "JOINVILLE LE PONT",
    "code_postal": 94340,
    "departement": 94
  },
  {
    "nom": "LE KREMLIN BICETRE",
    "code_postal": 94270,
    "departement": 94
  },
  {
    "nom": "LIMEIL BREVANNES",
    "code_postal": 94450,
    "departement": 94
  },
  {
    "nom": "MAISONS ALFORT",
    "code_postal": 94700,
    "departement": 94
  },
  {
    "nom": "MANDRES LES ROSES",
    "code_postal": 94520,
    "departement": 94
  },
  {
    "nom": "MAROLLES EN BRIE",
    "code_postal": 94440,
    "departement": 94
  },
  {
    "nom": "NOGENT SUR MARNE",
    "code_postal": 94130,
    "departement": 94
  },
  {
    "nom": "NOISEAU",
    "code_postal": 94880,
    "departement": 94
  },
  {
    "nom": "ORLY",
    "code_postal": 94310,
    "departement": 94
  },
  {
    "nom": "ORMESSON SUR MARNE",
    "code_postal": 94490,
    "departement": 94
  },
  {
    "nom": "PERIGNY",
    "code_postal": 94520,
    "departement": 94
  },
  {
    "nom": "LE PERREUX SUR MARNE",
    "code_postal": 94170,
    "departement": 94
  },
  {
    "nom": "LE PLESSIS TREVISE",
    "code_postal": 94420,
    "departement": 94
  },
  {
    "nom": "LA QUEUE EN BRIE",
    "code_postal": 94510,
    "departement": 94
  },
  {
    "nom": "RUNGIS",
    "code_postal": 94150,
    "departement": 94
  },
  {
    "nom": "ST MANDE",
    "code_postal": 94160,
    "departement": 94
  },
  {
    "nom": "ST MAUR DES FOSSES",
    "code_postal": 94100,
    "departement": 94
  },
  {
    "nom": "ST MAUR DES FOSSES",
    "code_postal": 94210,
    "departement": 94
  },
  {
    "nom": "ST MAURICE",
    "code_postal": 94410,
    "departement": 94
  },
  {
    "nom": "SANTENY",
    "code_postal": 94440,
    "departement": 94
  },
  {
    "nom": "SUCY EN BRIE",
    "code_postal": 94370,
    "departement": 94
  },
  {
    "nom": "SUCY EN BRIE",
    "code_postal": 94370,
    "departement": 94
  },
  {
    "nom": "THIAIS",
    "code_postal": 94320,
    "departement": 94
  },
  {
    "nom": "VALENTON",
    "code_postal": 94460,
    "departement": 94
  },
  {
    "nom": "VALENTON",
    "code_postal": 94460,
    "departement": 94
  },
  {
    "nom": "VILLECRESNES",
    "code_postal": 94440,
    "departement": 94
  },
  {
    "nom": "VILLEJUIF",
    "code_postal": 94800,
    "departement": 94
  },
  {
    "nom": "VILLENEUVE LE ROI",
    "code_postal": 94290,
    "departement": 94
  },
  {
    "nom": "VILLENEUVE ST GEORGES",
    "code_postal": 94190,
    "departement": 94
  },
  {
    "nom": "VILLIERS SUR MARNE",
    "code_postal": 94350,
    "departement": 94
  },
  {
    "nom": "VINCENNES",
    "code_postal": 94300,
    "departement": 94
  },
  {
    "nom": "VITRY SUR SEINE",
    "code_postal": 94400,
    "departement": 94
  },
  {
    "nom": "ABLEIGES",
    "code_postal": 95450,
    "departement": 95
  },
  {
    "nom": "AINCOURT",
    "code_postal": 95510,
    "departement": 95
  },
  {
    "nom": "AMBLEVILLE",
    "code_postal": 95420,
    "departement": 95
  },
  {
    "nom": "AMBLEVILLE",
    "code_postal": 95710,
    "departement": 95
  },
  {
    "nom": "AMENUCOURT",
    "code_postal": 95510,
    "departement": 95
  },
  {
    "nom": "ANDILLY",
    "code_postal": 95580,
    "departement": 95
  },
  {
    "nom": "ARGENTEUIL",
    "code_postal": 95100,
    "departement": 95
  },
  {
    "nom": "ARNOUVILLE",
    "code_postal": 95400,
    "departement": 95
  },
  {
    "nom": "ARRONVILLE",
    "code_postal": 95810,
    "departement": 95
  },
  {
    "nom": "ARTHIES",
    "code_postal": 95420,
    "departement": 95
  },
  {
    "nom": "ASNIERES SUR OISE",
    "code_postal": 95270,
    "departement": 95
  },
  {
    "nom": "ATTAINVILLE",
    "code_postal": 95570,
    "departement": 95
  },
  {
    "nom": "AUVERS SUR OISE",
    "code_postal": 95430,
    "departement": 95
  },
  {
    "nom": "AVERNES",
    "code_postal": 95450,
    "departement": 95
  },
  {
    "nom": "AVERNES",
    "code_postal": 95450,
    "departement": 95
  },
  {
    "nom": "BAILLET EN FRANCE",
    "code_postal": 95560,
    "departement": 95
  },
  {
    "nom": "BANTHELU",
    "code_postal": 95420,
    "departement": 95
  },
  {
    "nom": "BEAUCHAMP",
    "code_postal": 95250,
    "departement": 95
  },
  {
    "nom": "BEAUMONT SUR OISE",
    "code_postal": 95260,
    "departement": 95
  },
  {
    "nom": "LE BELLAY EN VEXIN",
    "code_postal": 95750,
    "departement": 95
  },
  {
    "nom": "BELLEFONTAINE",
    "code_postal": 95270,
    "departement": 95
  },
  {
    "nom": "BELLOY EN FRANCE",
    "code_postal": 95270,
    "departement": 95
  },
  {
    "nom": "BERNES SUR OISE",
    "code_postal": 95340,
    "departement": 95
  },
  {
    "nom": "BERVILLE",
    "code_postal": 95810,
    "departement": 95
  },
  {
    "nom": "BESSANCOURT",
    "code_postal": 95550,
    "departement": 95
  },
  {
    "nom": "BETHEMONT LA FORET",
    "code_postal": 95840,
    "departement": 95
  },
  {
    "nom": "BEZONS",
    "code_postal": 95870,
    "departement": 95
  },
  {
    "nom": "BOISEMONT",
    "code_postal": 95000,
    "departement": 95
  },
  {
    "nom": "BOISSY L AILLERIE",
    "code_postal": 95650,
    "departement": 95
  },
  {
    "nom": "BONNEUIL EN FRANCE",
    "code_postal": 95500,
    "departement": 95
  },
  {
    "nom": "BOUFFEMONT",
    "code_postal": 95570,
    "departement": 95
  },
  {
    "nom": "BOUQUEVAL",
    "code_postal": 95720,
    "departement": 95
  },
  {
    "nom": "BRAY ET LU",
    "code_postal": 95710,
    "departement": 95
  },
  {
    "nom": "BREANCON",
    "code_postal": 95640,
    "departement": 95
  },
  {
    "nom": "BRIGNANCOURT",
    "code_postal": 95640,
    "departement": 95
  },
  {
    "nom": "BRUYERES SUR OISE",
    "code_postal": 95820,
    "departement": 95
  },
  {
    "nom": "BUHY",
    "code_postal": 95770,
    "departement": 95
  },
  {
    "nom": "BUTRY SUR OISE",
    "code_postal": 95430,
    "departement": 95
  },
  {
    "nom": "CERGY",
    "code_postal": 95000,
    "departement": 95
  },
  {
    "nom": "CERGY",
    "code_postal": 95000,
    "departement": 95
  },
  {
    "nom": "CERGY",
    "code_postal": 95800,
    "departement": 95
  },
  {
    "nom": "CHAMPAGNE SUR OISE",
    "code_postal": 95660,
    "departement": 95
  },
  {
    "nom": "LA CHAPELLE EN VEXIN",
    "code_postal": 95420,
    "departement": 95
  },
  {
    "nom": "CHARMONT",
    "code_postal": 95420,
    "departement": 95
  },
  {
    "nom": "CHARS",
    "code_postal": 95750,
    "departement": 95
  },
  {
    "nom": "CHATENAY EN FRANCE",
    "code_postal": 95190,
    "departement": 95
  },
  {
    "nom": "CHAUMONTEL",
    "code_postal": 95270,
    "departement": 95
  },
  {
    "nom": "CHAUSSY",
    "code_postal": 95710,
    "departement": 95
  },
  {
    "nom": "CHAUVRY",
    "code_postal": 95560,
    "departement": 95
  },
  {
    "nom": "CHENNEVIERES LES LOUVRES",
    "code_postal": 95380,
    "departement": 95
  },
  {
    "nom": "CHERENCE",
    "code_postal": 95510,
    "departement": 95
  },
  {
    "nom": "CLERY EN VEXIN",
    "code_postal": 95420,
    "departement": 95
  },
  {
    "nom": "COMMENY",
    "code_postal": 95450,
    "departement": 95
  },
  {
    "nom": "COMMENY",
    "code_postal": 95450,
    "departement": 95
  },
  {
    "nom": "CONDECOURT",
    "code_postal": 95450,
    "departement": 95
  },
  {
    "nom": "CORMEILLES EN PARISIS",
    "code_postal": 95240,
    "departement": 95
  },
  {
    "nom": "CORMEILLES EN VEXIN",
    "code_postal": 95830,
    "departement": 95
  },
  {
    "nom": "COURCELLES SUR VIOSNE",
    "code_postal": 95650,
    "departement": 95
  },
  {
    "nom": "COURDIMANCHE",
    "code_postal": 95800,
    "departement": 95
  },
  {
    "nom": "DEUIL LA BARRE",
    "code_postal": 95170,
    "departement": 95
  },
  {
    "nom": "DOMONT",
    "code_postal": 95330,
    "departement": 95
  },
  {
    "nom": "EAUBONNE",
    "code_postal": 95600,
    "departement": 95
  },
  {
    "nom": "ECOUEN",
    "code_postal": 95440,
    "departement": 95
  },
  {
    "nom": "ENGHIEN LES BAINS",
    "code_postal": 95880,
    "departement": 95
  },
  {
    "nom": "ENNERY",
    "code_postal": 95300,
    "departement": 95
  },
  {
    "nom": "EPIAIS LES LOUVRES",
    "code_postal": 95380,
    "departement": 95
  },
  {
    "nom": "EPIAIS RHUS",
    "code_postal": 95810,
    "departement": 95
  },
  {
    "nom": "EPINAY CHAMPLATREUX",
    "code_postal": 95270,
    "departement": 95
  },
  {
    "nom": "ERAGNY",
    "code_postal": 95610,
    "departement": 95
  },
  {
    "nom": "ERMONT",
    "code_postal": 95120,
    "departement": 95
  },
  {
    "nom": "EZANVILLE",
    "code_postal": 95460,
    "departement": 95
  },
  {
    "nom": "FONTENAY EN PARISIS",
    "code_postal": 95190,
    "departement": 95
  },
  {
    "nom": "FOSSES",
    "code_postal": 95470,
    "departement": 95
  },
  {
    "nom": "FRANCONVILLE",
    "code_postal": 95130,
    "departement": 95
  },
  {
    "nom": "FREMAINVILLE",
    "code_postal": 95450,
    "departement": 95
  },
  {
    "nom": "FREMECOURT",
    "code_postal": 95830,
    "departement": 95
  },
  {
    "nom": "FREPILLON",
    "code_postal": 95740,
    "departement": 95
  },
  {
    "nom": "LA FRETTE SUR SEINE",
    "code_postal": 95530,
    "departement": 95
  },
  {
    "nom": "FROUVILLE",
    "code_postal": 95690,
    "departement": 95
  },
  {
    "nom": "GARGES LES GONESSE",
    "code_postal": 95140,
    "departement": 95
  },
  {
    "nom": "GENAINVILLE",
    "code_postal": 95420,
    "departement": 95
  },
  {
    "nom": "GENICOURT",
    "code_postal": 95650,
    "departement": 95
  },
  {
    "nom": "GONESSE",
    "code_postal": 95500,
    "departement": 95
  },
  {
    "nom": "GOUSSAINVILLE",
    "code_postal": 95190,
    "departement": 95
  },
  {
    "nom": "GRISY LES PLATRES",
    "code_postal": 95810,
    "departement": 95
  },
  {
    "nom": "GROSLAY",
    "code_postal": 95410,
    "departement": 95
  },
  {
    "nom": "GUIRY EN VEXIN",
    "code_postal": 95450,
    "departement": 95
  },
  {
    "nom": "HARAVILLIERS",
    "code_postal": 95640,
    "departement": 95
  },
  {
    "nom": "HAUTE ISLE",
    "code_postal": 95780,
    "departement": 95
  },
  {
    "nom": "LE HEAULME",
    "code_postal": 95640,
    "departement": 95
  },
  {
    "nom": "HEDOUVILLE",
    "code_postal": 95690,
    "departement": 95
  },
  {
    "nom": "HERBLAY SUR SEINE",
    "code_postal": 95220,
    "departement": 95
  },
  {
    "nom": "HERBLAY SUR SEINE",
    "code_postal": 95220,
    "departement": 95
  },
  {
    "nom": "HEROUVILLE EN VEXIN",
    "code_postal": 95300,
    "departement": 95
  },
  {
    "nom": "HODENT",
    "code_postal": 95420,
    "departement": 95
  },
  {
    "nom": "L ISLE ADAM",
    "code_postal": 95290,
    "departement": 95
  },
  {
    "nom": "JAGNY SOUS BOIS",
    "code_postal": 95850,
    "departement": 95
  },
  {
    "nom": "JOUY LE MOUTIER",
    "code_postal": 95280,
    "departement": 95
  },
  {
    "nom": "JOUY LE MOUTIER",
    "code_postal": 95280,
    "departement": 95
  },
  {
    "nom": "JOUY LE MOUTIER",
    "code_postal": 95280,
    "departement": 95
  },
  {
    "nom": "LABBEVILLE",
    "code_postal": 95690,
    "departement": 95
  },
  {
    "nom": "LASSY",
    "code_postal": 95270,
    "departement": 95
  },
  {
    "nom": "LIVILLIERS",
    "code_postal": 95300,
    "departement": 95
  },
  {
    "nom": "LONGUESSE",
    "code_postal": 95450,
    "departement": 95
  },
  {
    "nom": "LOUVRES",
    "code_postal": 95380,
    "departement": 95
  },
  {
    "nom": "LUZARCHES",
    "code_postal": 95270,
    "departement": 95
  },
  {
    "nom": "MAFFLIERS",
    "code_postal": 95560,
    "departement": 95
  },
  {
    "nom": "MAGNY EN VEXIN",
    "code_postal": 95420,
    "departement": 95
  },
  {
    "nom": "MAREIL EN FRANCE",
    "code_postal": 95850,
    "departement": 95
  },
  {
    "nom": "MARGENCY",
    "code_postal": 95580,
    "departement": 95
  },
  {
    "nom": "MARINES",
    "code_postal": 95640,
    "departement": 95
  },
  {
    "nom": "MARLY LA VILLE",
    "code_postal": 95670,
    "departement": 95
  },
  {
    "nom": "MAUDETOUR EN VEXIN",
    "code_postal": 95420,
    "departement": 95
  },
  {
    "nom": "MENOUVILLE",
    "code_postal": 95810,
    "departement": 95
  },
  {
    "nom": "MENUCOURT",
    "code_postal": 95180,
    "departement": 95
  },
  {
    "nom": "MERIEL",
    "code_postal": 95630,
    "departement": 95
  },
  {
    "nom": "MERY SUR OISE",
    "code_postal": 95540,
    "departement": 95
  },
  {
    "nom": "LE MESNIL AUBRY",
    "code_postal": 95720,
    "departement": 95
  },
  {
    "nom": "MOISSELLES",
    "code_postal": 95570,
    "departement": 95
  },
  {
    "nom": "MONTGEROULT",
    "code_postal": 95650,
    "departement": 95
  },
  {
    "nom": "MONTIGNY LES CORMEILLES",
    "code_postal": 95370,
    "departement": 95
  },
  {
    "nom": "MONTLIGNON",
    "code_postal": 95680,
    "departement": 95
  },
  {
    "nom": "MONTMAGNY",
    "code_postal": 95360,
    "departement": 95
  },
  {
    "nom": "MONTMORENCY",
    "code_postal": 95160,
    "departement": 95
  },
  {
    "nom": "MONTREUIL SUR EPTE",
    "code_postal": 95770,
    "departement": 95
  },
  {
    "nom": "MONTSOULT",
    "code_postal": 95560,
    "departement": 95
  },
  {
    "nom": "MOURS",
    "code_postal": 95260,
    "departement": 95
  },
  {
    "nom": "MOUSSY",
    "code_postal": 95640,
    "departement": 95
  },
  {
    "nom": "NERVILLE LA FORET",
    "code_postal": 95590,
    "departement": 95
  },
  {
    "nom": "NESLES LA VALLEE",
    "code_postal": 95690,
    "departement": 95
  },
  {
    "nom": "NEUILLY EN VEXIN",
    "code_postal": 95640,
    "departement": 95
  },
  {
    "nom": "NEUVILLE SUR OISE",
    "code_postal": 95000,
    "departement": 95
  },
  {
    "nom": "NOINTEL",
    "code_postal": 95590,
    "departement": 95
  },
  {
    "nom": "NOISY SUR OISE",
    "code_postal": 95270,
    "departement": 95
  },
  {
    "nom": "NUCOURT",
    "code_postal": 95420,
    "departement": 95
  },
  {
    "nom": "OMERVILLE",
    "code_postal": 95420,
    "departement": 95
  },
  {
    "nom": "OSNY",
    "code_postal": 95520,
    "departement": 95
  },
  {
    "nom": "PARMAIN",
    "code_postal": 95620,
    "departement": 95
  },
  {
    "nom": "LE PERCHAY",
    "code_postal": 95450,
    "departement": 95
  },
  {
    "nom": "PERSAN",
    "code_postal": 95340,
    "departement": 95
  },
  {
    "nom": "PIERRELAYE",
    "code_postal": 95220,
    "departement": 95
  },
  {
    "nom": "PIERRELAYE",
    "code_postal": 95480,
    "departement": 95
  },
  {
    "nom": "PISCOP",
    "code_postal": 95350,
    "departement": 95
  },
  {
    "nom": "LE PLESSIS BOUCHARD",
    "code_postal": 95130,
    "departement": 95
  },
  {
    "nom": "LE PLESSIS GASSOT",
    "code_postal": 95720,
    "departement": 95
  },
  {
    "nom": "LE PLESSIS LUZARCHES",
    "code_postal": 95270,
    "departement": 95
  },
  {
    "nom": "PONTOISE",
    "code_postal": 95000,
    "departement": 95
  },
  {
    "nom": "PONTOISE",
    "code_postal": 95300,
    "departement": 95
  },
  {
    "nom": "PRESLES",
    "code_postal": 95590,
    "departement": 95
  },
  {
    "nom": "PUISEUX EN FRANCE",
    "code_postal": 95380,
    "departement": 95
  },
  {
    "nom": "PUISEUX PONTOISE",
    "code_postal": 95650,
    "departement": 95
  },
  {
    "nom": "LA ROCHE GUYON",
    "code_postal": 95780,
    "departement": 95
  },
  {
    "nom": "ROISSY EN FRANCE",
    "code_postal": 95700,
    "departement": 95
  },
  {
    "nom": "ROISSY EN FRANCE",
    "code_postal": 95700,
    "departement": 95
  },
  {
    "nom": "RONQUEROLLES",
    "code_postal": 95340,
    "departement": 95
  },
  {
    "nom": "SAGY",
    "code_postal": 95450,
    "departement": 95
  },
  {
    "nom": "ST BRICE SOUS FORET",
    "code_postal": 95350,
    "departement": 95
  },
  {
    "nom": "ST CLAIR SUR EPTE",
    "code_postal": 95770,
    "departement": 95
  },
  {
    "nom": "ST CYR EN ARTHIES",
    "code_postal": 95510,
    "departement": 95
  },
  {
    "nom": "ST GERVAIS",
    "code_postal": 95420,
    "departement": 95
  },
  {
    "nom": "ST GRATIEN",
    "code_postal": 95210,
    "departement": 95
  },
  {
    "nom": "ST LEU LA FORET",
    "code_postal": 95320,
    "departement": 95
  },
  {
    "nom": "ST MARTIN DU TERTRE",
    "code_postal": 95270,
    "departement": 95
  },
  {
    "nom": "ST OUEN L AUMONE",
    "code_postal": 95310,
    "departement": 95
  },
  {
    "nom": "ST PRIX",
    "code_postal": 95390,
    "departement": 95
  },
  {
    "nom": "ST WITZ",
    "code_postal": 95470,
    "departement": 95
  },
  {
    "nom": "SANNOIS",
    "code_postal": 95110,
    "departement": 95
  },
  {
    "nom": "SANTEUIL",
    "code_postal": 95640,
    "departement": 95
  },
  {
    "nom": "SARCELLES",
    "code_postal": 95200,
    "departement": 95
  },
  {
    "nom": "SERAINCOURT",
    "code_postal": 95450,
    "departement": 95
  },
  {
    "nom": "SEUGY",
    "code_postal": 95270,
    "departement": 95
  },
  {
    "nom": "SOISY SOUS MONTMORENCY",
    "code_postal": 95230,
    "departement": 95
  },
  {
    "nom": "SURVILLIERS",
    "code_postal": 95470,
    "departement": 95
  },
  {
    "nom": "TAVERNY",
    "code_postal": 95150,
    "departement": 95
  },
  {
    "nom": "THEMERICOURT",
    "code_postal": 95450,
    "departement": 95
  },
  {
    "nom": "THEUVILLE",
    "code_postal": 95810,
    "departement": 95
  },
  {
    "nom": "LE THILLAY",
    "code_postal": 95500,
    "departement": 95
  },
  {
    "nom": "US",
    "code_postal": 95450,
    "departement": 95
  },
  {
    "nom": "VALLANGOUJARD",
    "code_postal": 95810,
    "departement": 95
  },
  {
    "nom": "VALMONDOIS",
    "code_postal": 95760,
    "departement": 95
  },
  {
    "nom": "VAUDHERLAND",
    "code_postal": 95500,
    "departement": 95
  },
  {
    "nom": "VAUREAL",
    "code_postal": 95490,
    "departement": 95
  },
  {
    "nom": "VEMARS",
    "code_postal": 95470,
    "departement": 95
  },
  {
    "nom": "VETHEUIL",
    "code_postal": 95510,
    "departement": 95
  },
  {
    "nom": "VIARMES",
    "code_postal": 95270,
    "departement": 95
  },
  {
    "nom": "VIENNE EN ARTHIES",
    "code_postal": 95510,
    "departement": 95
  },
  {
    "nom": "VIGNY",
    "code_postal": 95450,
    "departement": 95
  },
  {
    "nom": "VILLAINES SOUS BOIS",
    "code_postal": 95570,
    "departement": 95
  },
  {
    "nom": "VILLERON",
    "code_postal": 95380,
    "departement": 95
  },
  {
    "nom": "VILLERS EN ARTHIES",
    "code_postal": 95510,
    "departement": 95
  },
  {
    "nom": "VILLIERS ADAM",
    "code_postal": 95840,
    "departement": 95
  },
  {
    "nom": "VILLIERS LE BEL",
    "code_postal": 95400,
    "departement": 95
  },
  {
    "nom": "VILLIERS LE SEC",
    "code_postal": 95720,
    "departement": 95
  },
  {
    "nom": "WY DIT JOLI VILLAGE",
    "code_postal": 95420,
    "departement": 95
  }
]